{
  "version": 0.6,
  "generator": "Overpass API 0.7.62.10 2d4cfc48",
  "osm3s": {
    "timestamp_osm_base": "2026-02-20T18:53:16Z",
    "copyright": "The data included in this document is from www.openstreetmap.org. The data is made available under ODbL."
  },
  "elements": [
    {
      "type": "way",
      "id": 233929151,
      "nodes": [
        2422431362,
        2422431363,
        2422431361,
        2422431360,
        2422431362
      ],
      "tags": {
        "building": "yes",
        "name": "碧砂漁港觀光漁市",
        "shop": "seafood"
      }
    },
    {
      "type": "way",
      "id": 233929159,
      "nodes": [
        2422431665,
        2422431666,
        2422431667,
        2422431668,
        2422431665
      ],
      "tags": {
        "amenity": "restaurant",
        "building": "yes",
        "name": "碧砂漁港飲食街"
      }
    },
    {
      "type": "way",
      "id": 233929241,
      "nodes": [
        2422433721,
        2422433711,
        2422433715,
        2422433706,
        2422433721
      ],
      "tags": {
        "building": "yes"
      }
    },
    {
      "type": "way",
      "id": 253279117,
      "nodes": [
        2592304786,
        2592304782,
        2592304778,
        2592304779,
        2592304781,
        2592304785,
        2592304783,
        2592304784,
        2592304786
      ],
      "tags": {
        "building": "yes",
        "name": "碧砂漁港安檢所"
      }
    },
    {
      "type": "way",
      "id": 308826112,
      "nodes": [
        3141154165,
        3141154166,
        3141154167,
        3141154168,
        3141154165
      ],
      "tags": {
        "brand": "全家便利商店",
        "brand:en": "FamilyMart",
        "brand:ja": "ファミリーマート",
        "brand:wikidata": "Q10891564",
        "brand:zh": "全家便利商店",
        "building": "yes",
        "building:levels": "2",
        "disused:amenity": "fast_food",
        "disused:name": "麥當勞",
        "name": "全家便利商店",
        "name:en": "FamilyMart",
        "name:ja": "ファミリーマート",
        "name:zh": "全家便利商店",
        "payment:ep_easycard": "yes",
        "payment:ep_ipass": "yes",
        "shop": "convenience"
      }
    },
    {
      "type": "way",
      "id": 344240404,
      "nodes": [
        3509838918,
        3509838919,
        3509838920,
        3509838921,
        3509838918
      ],
      "tags": {
        "building": "yes"
      }
    },
    {
      "type": "way",
      "id": 367681558,
      "nodes": [
        3715757624,
        3715758333,
        3717114375,
        3715758325,
        3715758326,
        3715758342,
        3715758343,
        3715757624
      ],
      "tags": {
        "amenity": "library",
        "building": "yes",
        "name": "圖書館"
      }
    },
    {
      "type": "way",
      "id": 367681559,
      "nodes": [
        3715758327,
        3715758328,
        3717114086,
        3715758329,
        3715758330,
        3717114376,
        3715758327
      ],
      "tags": {
        "building": "university",
        "name": "人文大樓"
      }
    },
    {
      "type": "way",
      "id": 367681560,
      "nodes": [
        3715758331,
        3715758332,
        3715758333,
        3715757624,
        3715758346,
        3715758331
      ],
      "tags": {
        "building": "university",
        "name": "綜合二館"
      }
    },
    {
      "type": "way",
      "id": 367681561,
      "nodes": [
        3715758334,
        3715758335,
        3715758336,
        3715758337,
        3715758338,
        3715758339,
        3715758340,
        3715758341,
        3715758342,
        3715758343,
        3715758344,
        3715758345,
        3715758346,
        3715758334
      ],
      "tags": {
        "building": "university",
        "name": "綜合研究中心"
      }
    },
    {
      "type": "way",
      "id": 367681562,
      "nodes": [
        3715758347,
        3715758348,
        3715758349,
        3715758350,
        3715758351,
        3717114379,
        3715758352,
        3715758347
      ],
      "tags": {
        "building": "university",
        "name": "綜合三館"
      }
    },
    {
      "type": "way",
      "id": 367681563,
      "nodes": [
        3715758353,
        3717114378,
        3715758354,
        3715758355,
        3715758356,
        3715758357,
        3715758358,
        3715758353
      ],
      "tags": {
        "building": "university",
        "name": "會議中心"
      }
    },
    {
      "type": "way",
      "id": 367681564,
      "nodes": [
        3715758358,
        3715758359,
        3715758360,
        3715758361,
        3715758362,
        3715758363,
        3717114383,
        3715758357,
        3715758358
      ],
      "tags": {
        "building": "university",
        "name": "行政大樓"
      }
    },
    {
      "type": "way",
      "id": 367681565,
      "nodes": [
        3715758365,
        3715758364,
        3715758366,
        3715758367,
        3715758365
      ],
      "tags": {
        "building": "university",
        "name": "操船模擬機室"
      }
    },
    {
      "type": "way",
      "id": 367681566,
      "nodes": [
        3715758368,
        3717114384,
        3715758369,
        3715758370,
        3717114382,
        3715758371,
        3715758372,
        3715758373,
        3715758368
      ],
      "tags": {
        "building": "yes",
        "leisure": "sports_centre",
        "name": "育樂館"
      }
    },
    {
      "type": "way",
      "id": 367681567,
      "nodes": [
        3715758374,
        3715758375,
        3715758364,
        3715758365,
        3715758376,
        3715758377,
        3715758378,
        3715758374
      ],
      "tags": {
        "building": "university",
        "name": "商船學系系館"
      }
    },
    {
      "type": "way",
      "id": 367681568,
      "nodes": [
        3715758379,
        3715758380,
        3715758381,
        3715758382,
        3715758383,
        3715758384,
        3715758375,
        3715758374,
        3715758385,
        3715758386,
        3715758387,
        3715758388,
        3715758379
      ],
      "tags": {
        "building": "university",
        "name": "機械與工程學系系館"
      }
    },
    {
      "type": "way",
      "id": 367681569,
      "nodes": [
        9257049873,
        3715758390,
        3715758391,
        3715758392,
        3715758389,
        9257049874,
        9257049876,
        9254976798,
        5255271992,
        9254976799,
        9257049875,
        9257049872,
        9257049871,
        9257049870,
        9257049869,
        9257049868,
        9257049873
      ],
      "tags": {
        "building": "university",
        "name": "延平技術大樓"
      }
    },
    {
      "type": "way",
      "id": 367681570,
      "nodes": [
        3715758376,
        3715758393,
        3715758394,
        3715758397,
        3715758367,
        3715758365,
        3715758376
      ],
      "tags": {
        "building": "university",
        "name": "沛華大樓"
      }
    },
    {
      "type": "way",
      "id": 367681571,
      "nodes": [
        3715758394,
        3715758395,
        3715758396,
        3715758397,
        3715758394
      ],
      "tags": {
        "building": "university",
        "name": "航運管理學系系館"
      }
    },
    {
      "type": "way",
      "id": 367681572,
      "nodes": [
        3715758398,
        3715758399,
        3715758400,
        3715758401,
        3715758402,
        3715758403,
        3715758398
      ],
      "tags": {
        "building": "university",
        "name": "海空大樓"
      }
    },
    {
      "type": "way",
      "id": 367681573,
      "nodes": [
        3715758404,
        3715758405,
        5255271981,
        5255271979,
        5255272001,
        3715758407,
        5255272003,
        5255272002,
        3715758404
      ],
      "tags": {
        "building": "university",
        "leisure": "sports_centre",
        "name": "游泳池",
        "sport": "swimming"
      }
    },
    {
      "type": "way",
      "id": 367681574,
      "nodes": [
        5255271993,
        3715758412,
        3715758411,
        3715758408,
        5255271986,
        5255271988,
        5255271991,
        5255271993
      ],
      "tags": {
        "building": "dormitory",
        "name": "男二舍"
      }
    },
    {
      "type": "way",
      "id": 367681575,
      "nodes": [
        3715758412,
        5255271974,
        5255271994,
        5255271990,
        5255271987,
        5255271989,
        5255271993,
        3715758412
      ],
      "tags": {
        "building": "dormitory",
        "name": "男三舍"
      }
    },
    {
      "type": "way",
      "id": 367681576,
      "nodes": [
        5255271975,
        9254976794,
        3715758415,
        9254976796,
        9254976797,
        9254976795,
        5255271977,
        5255271976,
        5255271975
      ],
      "tags": {
        "building": "dormitory",
        "name": "男三女二舍"
      }
    },
    {
      "type": "way",
      "id": 367681578,
      "nodes": [
        3715758438,
        3715758439,
        3715758440,
        3715758441,
        3715758438
      ],
      "tags": {
        "amenity": "food_court",
        "building": "yes",
        "cuisine": "chinese",
        "name": "第一餐廳",
        "takeaway": "yes"
      }
    },
    {
      "type": "way",
      "id": 367681579,
      "nodes": [
        3715758442,
        3715758443,
        3715758444,
        3715758445,
        3715758446,
        3715758447,
        3715758448,
        3715758449,
        3715758450,
        3715758442
      ],
      "tags": {
        "building": "dormitory",
        "name": "男一舍"
      }
    },
    {
      "type": "way",
      "id": 367832837,
      "nodes": [
        3717114079,
        3717114080,
        3717114081,
        3717114082,
        3717114083,
        3717114084,
        3717114085,
        12440057366,
        3717114086,
        3715758328,
        3717114079
      ],
      "tags": {
        "building": "university",
        "name": "海事大樓"
      }
    },
    {
      "type": "way",
      "id": 367832838,
      "nodes": [
        3717114087,
        3717114088,
        3717114089,
        3717114090,
        3717114087
      ],
      "tags": {
        "building": "university",
        "name": "海洋環境化學與生態研究所"
      }
    },
    {
      "type": "way",
      "id": 367832839,
      "nodes": [
        3717114091,
        3717114092,
        3717114093,
        3717114094,
        3717114091
      ],
      "tags": {
        "building": "university",
        "name": "綜合一館"
      }
    },
    {
      "type": "way",
      "id": 367832840,
      "nodes": [
        3717114095,
        5302884765,
        5302884764,
        3717114084,
        3717114083,
        3717114097,
        3717114095
      ],
      "tags": {
        "building": "university",
        "name": "海洋環境資訊系系館"
      }
    },
    {
      "type": "way",
      "id": 367832842,
      "nodes": [
        3717114108,
        3717114109,
        5337573698,
        5337573696,
        3717114108
      ],
      "tags": {
        "building": "university",
        "name": "漁學館"
      }
    },
    {
      "type": "way",
      "id": 367832843,
      "nodes": [
        5255271929,
        3717114112,
        3717114113,
        3717114114,
        5255271931,
        5255271930,
        5255271929
      ],
      "tags": {
        "building": "university",
        "name": "生命科學院館暨水產養殖學系館",
        "name:zh": "生科院館／水產養殖系館"
      }
    },
    {
      "type": "way",
      "id": 367832844,
      "nodes": [
        3717114116,
        3717114117,
        3717114387,
        5255271820,
        3717114121,
        5255271921,
        3717114116
      ],
      "tags": {
        "building": "university",
        "name": "食品工程館"
      }
    },
    {
      "type": "way",
      "id": 367832845,
      "nodes": [
        5255271818,
        5255271925,
        5255271924,
        3717114121,
        5255271820,
        5255271819,
        5255271922,
        5255271923,
        5255271818
      ],
      "tags": {
        "addr:city": "基隆市",
        "addr:country": "TW",
        "addr:district": "中正區",
        "addr:housenumber": "2",
        "addr:postcode": "20224",
        "addr:province": "台灣省",
        "addr:street": "北寧路",
        "building": "school",
        "name": "陸生動物實驗中心",
        "office": "research",
        "website": "https://ind.ntou.edu.tw/~animal/environment/index.html"
      }
    },
    {
      "type": "way",
      "id": 367832846,
      "nodes": [
        4436789875,
        3717114388,
        3717114124,
        3717114325,
        3717114326,
        4436789875
      ],
      "tags": {
        "building": "university",
        "name": "食品科學學系館"
      }
    },
    {
      "type": "way",
      "id": 367832847,
      "nodes": [
        3717114327,
        3717114328,
        3717114329,
        3717114330,
        3717114327
      ],
      "tags": {
        "addr:city": "基隆市",
        "addr:country": "TW",
        "addr:district": "中正區",
        "addr:housenumber": "2",
        "addr:postcode": "20224",
        "addr:province": "台灣省",
        "addr:street": "北寧路",
        "building": "school",
        "name": "水生動物實驗中心",
        "office": "research",
        "phone": "+886 2 2462 2192 # 5235",
        "website": "http://aac.ntou.edu.tw/touchmaker/front/bin/home.phtml"
      }
    },
    {
      "type": "way",
      "id": 367832849,
      "nodes": [
        3717114332,
        3717114335,
        5729328516,
        3717114336,
        3717114333,
        3717114332
      ],
      "tags": {
        "building": "university",
        "name": "電機二館"
      }
    },
    {
      "type": "way",
      "id": 367832850,
      "nodes": [
        3717114340,
        3717114341,
        3717114342,
        3717114343,
        3717114344,
        3717114345,
        3717114346,
        3717114347,
        3717114348,
        3717114371,
        3717114340
      ],
      "tags": {
        "building": "university",
        "name": "工學院"
      }
    },
    {
      "type": "way",
      "id": 367832851,
      "nodes": [
        3717114349,
        3717114350,
        3717114372,
        3717114351,
        3717114352,
        3717114349
      ],
      "tags": {
        "addr:city": "基隆市",
        "addr:country": "TW",
        "addr:district": "中正區",
        "addr:housenumber": "2",
        "addr:province": "台灣省",
        "addr:street": "北寧路",
        "building": "school",
        "name": "海洋工程綜合試驗館",
        "office": "research"
      }
    },
    {
      "type": "way",
      "id": 367832852,
      "nodes": [
        3717114353,
        3717114373,
        3717114354,
        3717114355,
        3717114356,
        3717114357,
        3717114358,
        3717114353
      ],
      "tags": {
        "building": "university",
        "name": "河工二館"
      }
    },
    {
      "type": "way",
      "id": 367832853,
      "nodes": [
        3717114356,
        3717114357,
        3717114359,
        3717114360,
        3717114361,
        3717114356
      ],
      "tags": {
        "addr:city": "基隆市",
        "addr:country": "TW",
        "addr:district": "中正區",
        "addr:housenumber": "2",
        "addr:postcode": "20224",
        "addr:province": "台灣省",
        "addr:street": "北寧路",
        "building": "school",
        "name": "大型空蝕水槽實驗室",
        "office": "research",
        "phone": "+886 2 2462 2192 # 6019",
        "website": "http://www.se.ntou.edu.tw/~LCTL/p+v.html"
      }
    },
    {
      "type": "way",
      "id": 367832868,
      "nodes": [
        3717114395,
        3717114396,
        3717114397,
        3717114398,
        3717114395
      ],
      "tags": {
        "building": "yes"
      }
    },
    {
      "type": "way",
      "id": 367900184,
      "nodes": [
        3717718153,
        3717718154,
        3717734296,
        3717718156,
        6264037446,
        6264037443,
        6264037444,
        6264037445,
        6264037447,
        6264037448,
        6264037449,
        3717718153
      ],
      "tags": {
        "building": "university",
        "building:levels": "4",
        "leisure": "sports_centre",
        "name": "體育館"
      }
    },
    {
      "type": "way",
      "id": 367903052,
      "nodes": [
        6264037453,
        3717734292,
        3717734293,
        3717734294,
        6264037452,
        6264037450,
        6264037451,
        6264037453
      ],
      "tags": {
        "building": "university",
        "building:levels": "3",
        "leisure": "stadium",
        "name": "學生活動中心"
      }
    },
    {
      "type": "way",
      "id": 367903053,
      "nodes": [
        5255271982,
        5255271983,
        5255271984,
        3717734302,
        3717734303,
        5255271980,
        5255271982
      ],
      "tags": {
        "addr:city": "基隆市",
        "addr:country": "TW",
        "addr:district": "中正區",
        "addr:housenumber": "6-1",
        "addr:province": "台灣省",
        "addr:street": "北寧路154巷",
        "amenity": "place_of_worship",
        "building": "yes",
        "name": "正安宮",
        "phone": "+886 2 2462 2720",
        "religion": "taoist"
      }
    },
    {
      "type": "way",
      "id": 367904335,
      "nodes": [
        3717747818,
        3717747819,
        5685309433,
        6438637568,
        6438637567,
        3717747798,
        3717747820,
        3717747818
      ],
      "tags": {
        "addr:city": "基隆市",
        "addr:country": "TW",
        "addr:district": "中正區",
        "addr:housenumber": "75",
        "addr:postcode": "202",
        "addr:province": "台灣省",
        "addr:street": "正濱路116巷",
        "building": "yes",
        "name": "基隆市原住民文化會館",
        "operator": "基隆市政府文化局",
        "phone": "+886 2 2462 0810",
        "tourism": "museum",
        "website": "http://keelungich.blogspot.tw/",
        "wikidata": "Q61747401",
        "wikipedia:en": "Keelung City Indigenous Cultural Hall"
      }
    },
    {
      "type": "way",
      "id": 368846369,
      "nodes": [
        3726877242,
        3726877243,
        3726877244,
        3726877245,
        3726877242
      ],
      "tags": {
        "addr:city": "基隆市",
        "addr:country": "TW",
        "addr:district": "中正區",
        "addr:housenumber": "786-1",
        "addr:postcode": "202",
        "addr:province": "台灣省",
        "addr:street": "中正路",
        "amenity": "police",
        "building": "public",
        "building:levels": "4",
        "disused:amenity": "clinic",
        "disused:government": "healthcare",
        "disused:healthcare": "yes",
        "disused:name": "基隆市中正區衛生所",
        "disused:office": "government",
        "disused:operator": "基隆市政府衛生局",
        "disused:phone": "02-2462-1632",
        "name": "正濱派出所",
        "official_name": "基隆市警察局正濱派出所",
        "opening_hours": "24/7",
        "operator": "基隆市警察局第二分局",
        "phone": "+886 2 2462-1889"
      }
    },
    {
      "type": "way",
      "id": 375214244,
      "nodes": [
        3785992661,
        3785992662,
        3785992663,
        3785992664,
        3785992665,
        3785992666,
        3785992667,
        3785992668,
        3785992661
      ],
      "tags": {
        "building": "dormitory",
        "name": "女一舍"
      }
    },
    {
      "type": "way",
      "id": 547833100,
      "nodes": [
        5293089671,
        5293089672,
        5293089673,
        5293089674,
        5293089675,
        5293089676,
        5293089671
      ],
      "tags": {
        "building": "yes"
      }
    },
    {
      "type": "way",
      "id": 547833101,
      "nodes": [
        5293089677,
        5293089681,
        5293089682,
        5293089678,
        5293089687,
        5293089689,
        5293089688,
        5293089686,
        5293089679,
        5293089677
      ],
      "tags": {
        "building": "yes"
      }
    },
    {
      "type": "way",
      "id": 547833102,
      "nodes": [
        5293089680,
        5293089681,
        5293089682,
        5293089683,
        5293089684,
        5293089685,
        5293089680
      ],
      "tags": {
        "building": "yes"
      }
    },
    {
      "type": "way",
      "id": 549102502,
      "nodes": [
        5304364406,
        5304364405,
        5304364403,
        5304364401,
        5304364406
      ],
      "tags": {
        "amenity": "toilets",
        "building": "yes"
      }
    },
    {
      "type": "way",
      "id": 549266098,
      "nodes": [
        5305832008,
        5305832007,
        5305832006,
        5305832005,
        5305832008
      ],
      "tags": {
        "building": "ruins"
      }
    },
    {
      "type": "way",
      "id": 549266099,
      "nodes": [
        5305832013,
        5305832012,
        5305832011,
        5305832010,
        5305832013
      ],
      "tags": {
        "building": "ruins"
      }
    },
    {
      "type": "way",
      "id": 549266100,
      "nodes": [
        5305832018,
        5305832017,
        5305832016,
        5305832015,
        5305832018
      ],
      "tags": {
        "building": "ruins"
      }
    },
    {
      "type": "way",
      "id": 549266101,
      "nodes": [
        5305832522,
        5305832521,
        5305832020,
        5305832019,
        5305832522
      ],
      "tags": {
        "building": "ruins"
      }
    },
    {
      "type": "way",
      "id": 549266102,
      "nodes": [
        5305832526,
        5305832525,
        5305832524,
        5305832523,
        5305832526
      ],
      "tags": {
        "building": "ruins"
      }
    },
    {
      "type": "way",
      "id": 549266103,
      "nodes": [
        5305832530,
        5305832529,
        5305832528,
        5305832527,
        5305832530
      ],
      "tags": {
        "building": "ruins"
      }
    },
    {
      "type": "way",
      "id": 595848642,
      "nodes": [
        5677896283,
        5677896284,
        5677896285,
        5677896286,
        5677896283
      ],
      "tags": {
        "amenity": "place_of_worship",
        "building": "yes",
        "religion": "taoist"
      }
    },
    {
      "type": "way",
      "id": 603542079,
      "nodes": [
        5729328512,
        5729328517,
        5729328513,
        5729328514,
        5729328515,
        5729328512
      ],
      "tags": {
        "building": "university",
        "name": "電機一館"
      }
    },
    {
      "type": "way",
      "id": 679165458,
      "nodes": [
        6359641478,
        6359641479,
        6359641480,
        6359641481,
        6359641478
      ],
      "tags": {
        "building": "school",
        "name": "國中部大樓"
      }
    },
    {
      "type": "way",
      "id": 679165459,
      "nodes": [
        6359641482,
        6359641483,
        6359641484,
        6359643385,
        6359643386,
        6359643387,
        6359643388,
        6359643389,
        6359643390,
        6359643391,
        6359643392,
        6359643393,
        6359641482
      ],
      "tags": {
        "building": "school",
        "name": "文創大樓"
      }
    },
    {
      "type": "way",
      "id": 679165461,
      "nodes": [
        6359643400,
        6359643401,
        6359643402,
        6359643403,
        6359643400
      ],
      "tags": {
        "building": "school",
        "name": "東樓"
      }
    },
    {
      "type": "way",
      "id": 679165463,
      "nodes": [
        6359643408,
        6359643409,
        6359643410,
        6359643411,
        6359643408
      ],
      "tags": {
        "building": "school",
        "name": "普科西樓"
      }
    },
    {
      "type": "way",
      "id": 679165464,
      "nodes": [
        6359643412,
        6359643413,
        6359643414,
        6359643415,
        6359643412
      ],
      "tags": {
        "building": "school",
        "name": "普科東樓"
      }
    },
    {
      "type": "way",
      "id": 679165466,
      "nodes": [
        6359643430,
        6359643431,
        6359643432,
        6359643433,
        6359643430
      ],
      "tags": {
        "building": "school",
        "name": "實習工廠"
      }
    },
    {
      "type": "way",
      "id": 679172722,
      "nodes": [
        6359707147,
        6359707148,
        6359707149,
        6359707150,
        6359707147
      ],
      "tags": {
        "building": "school",
        "name": "技藝大樓"
      }
    },
    {
      "type": "way",
      "id": 679172724,
      "nodes": [
        6359707151,
        6359707152,
        6359707153,
        6359707154,
        6359707151
      ],
      "tags": {
        "building": "school",
        "name": "資訊大樓"
      }
    },
    {
      "type": "way",
      "id": 679172726,
      "nodes": [
        6359707155,
        6359707156,
        6359707157,
        6359707158,
        6359707155
      ],
      "tags": {
        "building": "school",
        "name": "風雨操場"
      }
    },
    {
      "type": "way",
      "id": 679172729,
      "nodes": [
        6359707159,
        6359707160,
        6359707161,
        6359713839,
        6359713841,
        6359713842,
        6359713843,
        6359713844,
        6359713840,
        6359707162,
        6359707163,
        6359707164,
        6359707165,
        6359707166,
        6359707167,
        6359707168,
        6359707169,
        6359707170,
        6359707159
      ],
      "tags": {
        "building": "school",
        "name": "勤學樓"
      }
    },
    {
      "type": "way",
      "id": 679172732,
      "nodes": [
        6359707171,
        6359707172,
        6359707173,
        6359707174,
        6359707171
      ],
      "tags": {
        "building": "school",
        "name": "敦品樓"
      }
    },
    {
      "type": "way",
      "id": 679172734,
      "nodes": [
        6359707175,
        6359707176,
        6359707177,
        6359707178,
        6359707175
      ],
      "tags": {
        "building": "school",
        "name": "電腦大樓"
      }
    },
    {
      "type": "way",
      "id": 679172737,
      "nodes": [
        6359707179,
        6359707180,
        6359707181,
        4891309457,
        6359707182,
        6359707183,
        6359707184,
        6359713785,
        6359713786,
        6359707179
      ],
      "tags": {
        "addr:city": "基隆市",
        "addr:country": "TW",
        "addr:district": "中正區",
        "addr:full": "基隆市中正區海濱里11鄰祥豐街246號",
        "addr:hamlet": "海濱里",
        "addr:housenumber": "246",
        "addr:neighbourhood": "11",
        "addr:province": "台灣省",
        "addr:street": "祥豐街",
        "alt_name": "基隆海事活動中心",
        "building": "school",
        "emergency": "assembly_point",
        "emergency:amenity": "social_facility",
        "emergency:shelter_type": "土石流,海嘯",
        "emergency:social_facility": "shelter",
        "emergency:social_facility:association_villages": "海濱里",
        "emergency:social_facility:for": "displaced_people",
        "emergency:social_facility:id": "2763",
        "emergency:social_facility:source": "內政部消防署",
        "evacuation_center": "yes",
        "name": "學生活動中心"
      }
    },
    {
      "type": "way",
      "id": 679172739,
      "nodes": [
        6359713787,
        6359713788,
        6359713789,
        6359713790,
        6359713791,
        6359713792,
        6359713793,
        6359713794,
        6359713787
      ],
      "tags": {
        "building": "school",
        "name": "航輪大樓"
      }
    },
    {
      "type": "way",
      "id": 679172740,
      "nodes": [
        6359713795,
        6359713796,
        6359713845,
        6359713797,
        6359713798,
        6359713799,
        6359713800,
        6359713801,
        6359713802,
        6359713795
      ],
      "tags": {
        "building": "school",
        "name": "育賢樓"
      }
    },
    {
      "type": "way",
      "id": 679172744,
      "nodes": [
        6359713818,
        6359713819,
        6359713820,
        6359713821,
        6359713822,
        6359713823,
        6359713824,
        6359713825,
        6359713826,
        6359713827,
        6359713828,
        6359713829,
        6359713830,
        6359713831,
        6359713832,
        6359713833,
        6359713834,
        6359713818
      ],
      "tags": {
        "building": "school",
        "name": "行政大樓"
      }
    },
    {
      "type": "way",
      "id": 679172745,
      "nodes": [
        6359713835,
        6359713836,
        6359713837,
        6359713838,
        6359713835
      ],
      "tags": {
        "building": "school"
      }
    },
    {
      "type": "way",
      "id": 679172747,
      "nodes": [
        6359713845,
        6359713846,
        6359713847,
        6359713848,
        6359713849,
        6359713796,
        6359713845
      ],
      "tags": {
        "amenity": "library",
        "building": "school",
        "name": "志學樓"
      }
    },
    {
      "type": "way",
      "id": 679172749,
      "nodes": [
        6359713850,
        6359713851,
        6359713852,
        6359713853,
        6359713850
      ],
      "tags": {
        "building": "school",
        "name": "食品大樓"
      }
    },
    {
      "type": "way",
      "id": 679172750,
      "nodes": [
        6359713854,
        6359713855,
        6359713856,
        6359713857,
        6359713858,
        6359713854
      ],
      "tags": {
        "building": "school",
        "name": "旱船大樓"
      }
    },
    {
      "type": "way",
      "id": 686878103,
      "nodes": [
        6438637570,
        6438637571,
        6438637572,
        6438637573,
        6438637574,
        6438637575,
        6438637576,
        6438637577,
        6438637570
      ],
      "tags": {
        "building": "yes"
      }
    },
    {
      "type": "way",
      "id": 730667262,
      "nodes": [
        6843967613,
        12250189460,
        6843967614,
        6843967615,
        6843967613
      ],
      "tags": {
        "building": "school",
        "name": "雲耕樓"
      }
    },
    {
      "type": "way",
      "id": 730667263,
      "nodes": [
        6843967616,
        6843967617,
        6843967618,
        6843967619,
        6843967616
      ],
      "tags": {
        "building": "school",
        "name": "北棟"
      }
    },
    {
      "type": "way",
      "id": 730667264,
      "nodes": [
        6843967620,
        6843967621,
        6843967622,
        6843967623,
        6843967620
      ],
      "tags": {
        "building": "school",
        "name": "西棟"
      }
    },
    {
      "type": "way",
      "id": 1002847587,
      "nodes": [
        9254976800,
        9254976801,
        9254976802,
        9254976803,
        9254976800
      ],
      "tags": {
        "brand": "全家便利商店",
        "brand:en": "FamilyMart",
        "brand:wikidata": "Q10891564",
        "brand:wikipedia": "zh:全家便利商店",
        "brand:zh": "全家便利商店",
        "building": "yes",
        "name": "全家便利商店",
        "name:en": "FamilyMart",
        "name:zh": "全家便利商店",
        "shop": "convenience"
      }
    },
    {
      "type": "way",
      "id": 1341470920,
      "nodes": [
        12408789688,
        12408789689,
        12408789690,
        12408789691,
        12408789688
      ],
      "tags": {
        "building": "yes"
      }
    },
    {
      "type": "way",
      "id": 1341470921,
      "nodes": [
        12408789692,
        12408789693,
        12408789694,
        12408789695,
        12408789692
      ],
      "tags": {
        "building": "yes"
      }
    },
    {
      "type": "way",
      "id": 1341470922,
      "nodes": [
        12408789696,
        12408789697,
        12408789698,
        12408789699,
        12408789696
      ],
      "tags": {
        "building": "yes"
      }
    },
    {
      "type": "way",
      "id": 1341470923,
      "nodes": [
        12408789700,
        12408829901,
        12408829902,
        12408829903,
        12408789700
      ],
      "tags": {
        "building": "yes"
      }
    },
    {
      "type": "way",
      "id": 1341470924,
      "nodes": [
        12408829904,
        12408829905,
        12408829906,
        12408829907,
        12408829904
      ],
      "tags": {
        "building": "yes"
      }
    },
    {
      "type": "way",
      "id": 1341470925,
      "nodes": [
        12408829908,
        12408829909,
        12408829910,
        12408829911,
        12408829908
      ],
      "tags": {
        "building": "yes"
      }
    },
    {
      "type": "way",
      "id": 1341470926,
      "nodes": [
        12408829912,
        12408829913,
        12408829914,
        12408829915,
        12408829912
      ],
      "tags": {
        "building": "yes"
      }
    },
    {
      "type": "way",
      "id": 1341470927,
      "nodes": [
        12408829916,
        12408829917,
        12408829918,
        12408829919,
        12408829916
      ],
      "tags": {
        "building": "yes"
      }
    },
    {
      "type": "way",
      "id": 1341470928,
      "nodes": [
        12408829920,
        12408829921,
        12408829922,
        12408829923,
        12408829920
      ],
      "tags": {
        "building": "yes"
      }
    },
    {
      "type": "way",
      "id": 1341470929,
      "nodes": [
        12408829924,
        12408829925,
        12408829926,
        12408829927,
        12408829924
      ],
      "tags": {
        "building": "yes"
      }
    },
    {
      "type": "way",
      "id": 1341470930,
      "nodes": [
        12408829928,
        12408829929,
        12408829930,
        12408829931,
        12408829928
      ],
      "tags": {
        "building": "yes"
      }
    },
    {
      "type": "way",
      "id": 1341470931,
      "nodes": [
        12408829932,
        12408829933,
        12408829934,
        12408829935,
        12408829932
      ],
      "tags": {
        "building": "yes"
      }
    },
    {
      "type": "way",
      "id": 1341470932,
      "nodes": [
        12408829936,
        12408829937,
        12408829938,
        12408829962,
        12408829939,
        12408829936
      ],
      "tags": {
        "building": "yes"
      }
    },
    {
      "type": "way",
      "id": 1341470933,
      "nodes": [
        12408829940,
        12408829961,
        12408829941,
        12408829942,
        12408829943,
        12408829940
      ],
      "tags": {
        "building": "yes"
      }
    },
    {
      "type": "way",
      "id": 1341470934,
      "nodes": [
        12408829944,
        12408829945,
        12408829946,
        12408829947,
        12408829944
      ],
      "tags": {
        "building": "yes"
      }
    },
    {
      "type": "way",
      "id": 1341470935,
      "nodes": [
        12408829948,
        12408829949,
        12408829950,
        12408829960,
        12408829951,
        12408829948
      ],
      "tags": {
        "building": "yes"
      }
    },
    {
      "type": "way",
      "id": 1341470936,
      "nodes": [
        12408829952,
        12408829953,
        12408829954,
        12408829955,
        12408829952
      ],
      "tags": {
        "building": "yes"
      }
    },
    {
      "type": "way",
      "id": 1341470937,
      "nodes": [
        12408829956,
        12408829957,
        12408829958,
        12408829959,
        12408829956
      ],
      "tags": {
        "building": "yes"
      }
    },
    {
      "type": "way",
      "id": 1341470938,
      "nodes": [
        12408829960,
        12408829950,
        12408829941,
        12408829961,
        12408829960
      ],
      "tags": {
        "building": "yes"
      }
    },
    {
      "type": "way",
      "id": 1341470939,
      "nodes": [
        12408829962,
        12408829938,
        12408829963,
        12408829964,
        12408829962
      ],
      "tags": {
        "building": "yes"
      }
    },
    {
      "type": "way",
      "id": 1341470940,
      "nodes": [
        12408829965,
        12408829956,
        12408829957,
        12408829966,
        12408829967,
        12408829965
      ],
      "tags": {
        "building": "yes"
      }
    },
    {
      "type": "way",
      "id": 1341470941,
      "nodes": [
        12408829968,
        12408829969,
        12408829970,
        12408829971,
        12408829968
      ],
      "tags": {
        "building": "yes"
      }
    },
    {
      "type": "way",
      "id": 1341470942,
      "nodes": [
        12408829972,
        12408829973,
        12408829974,
        12408829975,
        12408829972
      ],
      "tags": {
        "building": "yes"
      }
    },
    {
      "type": "way",
      "id": 1341470943,
      "nodes": [
        12408829976,
        12408829977,
        12408829978,
        12408829979,
        12408829976
      ],
      "tags": {
        "building": "yes"
      }
    },
    {
      "type": "way",
      "id": 1341470944,
      "nodes": [
        12408829980,
        12408829981,
        12408829982,
        12408829983,
        12408829984,
        12408829985,
        12408829980
      ],
      "tags": {
        "building": "yes"
      }
    },
    {
      "type": "way",
      "id": 1344684435,
      "nodes": [
        12440057373,
        12440057374,
        12440057375,
        12440057376,
        12440057373
      ],
      "tags": {
        "building": "university",
        "name": "電資暨綜合教學大樓"
      }
    },
    {
      "type": "node",
      "id": 5337573696,
      "lat": 25.1494397,
      "lon": 121.7718798
    },
    {
      "type": "node",
      "id": 5337573698,
      "lat": 25.1493057,
      "lon": 121.7720546
    },
    {
      "type": "node",
      "id": 6359641478,
      "lat": 25.1443064,
      "lon": 121.7702522
    },
    {
      "type": "node",
      "id": 6359641479,
      "lat": 25.1441506,
      "lon": 121.7708673
    },
    {
      "type": "node",
      "id": 6359641480,
      "lat": 25.1440473,
      "lon": 121.7708381
    },
    {
      "type": "node",
      "id": 6359641481,
      "lat": 25.144199,
      "lon": 121.7702201
    },
    {
      "type": "node",
      "id": 6359641482,
      "lat": 25.1442212,
      "lon": 121.7708922
    },
    {
      "type": "node",
      "id": 6359641483,
      "lat": 25.14421,
      "lon": 121.7709405
    },
    {
      "type": "node",
      "id": 6359641484,
      "lat": 25.1442716,
      "lon": 121.7709579
    },
    {
      "type": "node",
      "id": 6359643385,
      "lat": 25.1442505,
      "lon": 121.7710489
    },
    {
      "type": "node",
      "id": 6359643386,
      "lat": 25.1441871,
      "lon": 121.771031
    },
    {
      "type": "node",
      "id": 6359643387,
      "lat": 25.1441767,
      "lon": 121.7710754
    },
    {
      "type": "node",
      "id": 6359643388,
      "lat": 25.1441108,
      "lon": 121.7710568
    },
    {
      "type": "node",
      "id": 6359643389,
      "lat": 25.1441066,
      "lon": 121.7710746
    },
    {
      "type": "node",
      "id": 6359643390,
      "lat": 25.1440044,
      "lon": 121.7710457
    },
    {
      "type": "node",
      "id": 6359643391,
      "lat": 25.1440105,
      "lon": 121.771019
    },
    {
      "type": "node",
      "id": 6359643392,
      "lat": 25.1439456,
      "lon": 121.7710006
    },
    {
      "type": "node",
      "id": 6359643393,
      "lat": 25.1439862,
      "lon": 121.7708257
    },
    {
      "type": "node",
      "id": 6359643400,
      "lat": 25.1439486,
      "lon": 121.7721244
    },
    {
      "type": "node",
      "id": 6359643401,
      "lat": 25.143494,
      "lon": 121.7719918
    },
    {
      "type": "node",
      "id": 6359643402,
      "lat": 25.1435177,
      "lon": 121.7718925
    },
    {
      "type": "node",
      "id": 6359643403,
      "lat": 25.1439723,
      "lon": 121.7720251
    },
    {
      "type": "node",
      "id": 6359643408,
      "lat": 25.1441835,
      "lon": 121.7714736
    },
    {
      "type": "node",
      "id": 6359643409,
      "lat": 25.1442685,
      "lon": 121.7711102
    },
    {
      "type": "node",
      "id": 6359643410,
      "lat": 25.1444008,
      "lon": 121.7711504
    },
    {
      "type": "node",
      "id": 6359643411,
      "lat": 25.144311,
      "lon": 121.7715098
    },
    {
      "type": "node",
      "id": 6359643412,
      "lat": 25.1442855,
      "lon": 121.771597
    },
    {
      "type": "node",
      "id": 6359643413,
      "lat": 25.1441616,
      "lon": 121.7715635
    },
    {
      "type": "node",
      "id": 6359643414,
      "lat": 25.1440739,
      "lon": 121.7719326
    },
    {
      "type": "node",
      "id": 6359643415,
      "lat": 25.1441981,
      "lon": 121.7719672
    },
    {
      "type": "node",
      "id": 6359643430,
      "lat": 25.1445524,
      "lon": 121.7720189
    },
    {
      "type": "node",
      "id": 6359643431,
      "lat": 25.1444599,
      "lon": 121.7719916
    },
    {
      "type": "node",
      "id": 6359643432,
      "lat": 25.1443527,
      "lon": 121.7724346
    },
    {
      "type": "node",
      "id": 6359707147,
      "lat": 25.1468679,
      "lon": 121.7722695
    },
    {
      "type": "node",
      "id": 6359707151,
      "lat": 25.1467842,
      "lon": 121.7722093
    },
    {
      "type": "node",
      "id": 6359707152,
      "lat": 25.1465205,
      "lon": 121.7724389
    },
    {
      "type": "node",
      "id": 6359707153,
      "lat": 25.1464151,
      "lon": 121.7722912
    },
    {
      "type": "node",
      "id": 6359707154,
      "lat": 25.1466788,
      "lon": 121.7720616
    },
    {
      "type": "node",
      "id": 6359707155,
      "lat": 25.1465475,
      "lon": 121.7718556
    },
    {
      "type": "node",
      "id": 6359707156,
      "lat": 25.1461785,
      "lon": 121.772174
    },
    {
      "type": "node",
      "id": 6359707157,
      "lat": 25.1460923,
      "lon": 121.772052
    },
    {
      "type": "node",
      "id": 6359707158,
      "lat": 25.1464612,
      "lon": 121.7717336
    },
    {
      "type": "node",
      "id": 6359707159,
      "lat": 25.1474941,
      "lon": 121.7711137
    },
    {
      "type": "node",
      "id": 6359707160,
      "lat": 25.1474559,
      "lon": 121.7711559
    },
    {
      "type": "node",
      "id": 6359707161,
      "lat": 25.1474232,
      "lon": 121.7711122
    },
    {
      "type": "node",
      "id": 6359707162,
      "lat": 25.1467923,
      "lon": 121.7717023
    },
    {
      "type": "node",
      "id": 6359707163,
      "lat": 25.1468182,
      "lon": 121.7717384
    },
    {
      "type": "node",
      "id": 6359707164,
      "lat": 25.1467691,
      "lon": 121.7717836
    },
    {
      "type": "node",
      "id": 6359707165,
      "lat": 25.1466779,
      "lon": 121.7716647
    },
    {
      "type": "node",
      "id": 6359707166,
      "lat": 25.1467024,
      "lon": 121.7716406
    },
    {
      "type": "node",
      "id": 6359707167,
      "lat": 25.1466874,
      "lon": 121.771618
    },
    {
      "type": "node",
      "id": 6359707168,
      "lat": 25.1473646,
      "lon": 121.7709933
    },
    {
      "type": "node",
      "id": 6359707169,
      "lat": 25.147381,
      "lon": 121.7710144
    },
    {
      "type": "node",
      "id": 6359707170,
      "lat": 25.1474028,
      "lon": 121.7709978
    },
    {
      "type": "node",
      "id": 6359707171,
      "lat": 25.1477032,
      "lon": 121.7722142
    },
    {
      "type": "node",
      "id": 6359707173,
      "lat": 25.147278,
      "lon": 121.7724322
    },
    {
      "type": "node",
      "id": 6359707174,
      "lat": 25.1476252,
      "lon": 121.7721095
    },
    {
      "type": "node",
      "id": 6359707179,
      "lat": 25.1482162,
      "lon": 121.7722253
    },
    {
      "type": "node",
      "id": 6359707184,
      "lat": 25.1483793,
      "lon": 121.7724396
    },
    {
      "type": "node",
      "id": 6359713785,
      "lat": 25.1483862,
      "lon": 121.7723959
    },
    {
      "type": "node",
      "id": 6359713786,
      "lat": 25.1482591,
      "lon": 121.7722328
    },
    {
      "type": "node",
      "id": 6359713787,
      "lat": 25.1485441,
      "lon": 121.772119
    },
    {
      "type": "node",
      "id": 6359713788,
      "lat": 25.14846,
      "lon": 121.7721949
    },
    {
      "type": "node",
      "id": 6359713789,
      "lat": 25.1484377,
      "lon": 121.7721721
    },
    {
      "type": "node",
      "id": 6359713790,
      "lat": 25.148393,
      "lon": 121.7722196
    },
    {
      "type": "node",
      "id": 6359713791,
      "lat": 25.148369,
      "lon": 121.7722082
    },
    {
      "type": "node",
      "id": 6359713792,
      "lat": 25.1483501,
      "lon": 121.7722234
    },
    {
      "type": "node",
      "id": 6359713793,
      "lat": 25.1484875,
      "lon": 121.7724035
    },
    {
      "type": "node",
      "id": 6359713794,
      "lat": 25.1486454,
      "lon": 121.7722594
    },
    {
      "type": "node",
      "id": 6359713796,
      "lat": 25.1477893,
      "lon": 121.7723248
    },
    {
      "type": "node",
      "id": 6359713818,
      "lat": 25.1482081,
      "lon": 121.7716026
    },
    {
      "type": "node",
      "id": 6359713819,
      "lat": 25.1482203,
      "lon": 121.7715489
    },
    {
      "type": "node",
      "id": 6359713820,
      "lat": 25.1481499,
      "lon": 121.7715315
    },
    {
      "type": "node",
      "id": 6359713821,
      "lat": 25.148162,
      "lon": 121.7714926
    },
    {
      "type": "node",
      "id": 6359713822,
      "lat": 25.1479435,
      "lon": 121.7714188
    },
    {
      "type": "node",
      "id": 6359713823,
      "lat": 25.1479556,
      "lon": 121.7713692
    },
    {
      "type": "node",
      "id": 6359713824,
      "lat": 25.1478852,
      "lon": 121.7713477
    },
    {
      "type": "node",
      "id": 6359713825,
      "lat": 25.1478282,
      "lon": 121.7715771
    },
    {
      "type": "node",
      "id": 6359713826,
      "lat": 25.1478973,
      "lon": 121.7715972
    },
    {
      "type": "node",
      "id": 6359713827,
      "lat": 25.1479131,
      "lon": 121.7715342
    },
    {
      "type": "node",
      "id": 6359713828,
      "lat": 25.1480928,
      "lon": 121.7715851
    },
    {
      "type": "node",
      "id": 6359713829,
      "lat": 25.1481414,
      "lon": 121.7716857
    },
    {
      "type": "node",
      "id": 6359713830,
      "lat": 25.1481705,
      "lon": 121.7717031
    },
    {
      "type": "node",
      "id": 6359713831,
      "lat": 25.1482021,
      "lon": 121.7717045
    },
    {
      "type": "node",
      "id": 6359713832,
      "lat": 25.1482239,
      "lon": 121.7716911
    },
    {
      "type": "node",
      "id": 6359713833,
      "lat": 25.1482361,
      "lon": 121.7716549
    },
    {
      "type": "node",
      "id": 6359713834,
      "lat": 25.1482324,
      "lon": 121.7716213
    },
    {
      "type": "node",
      "id": 6359713835,
      "lat": 25.1474585,
      "lon": 121.7719616
    },
    {
      "type": "node",
      "id": 6359713836,
      "lat": 25.1473872,
      "lon": 121.7720291
    },
    {
      "type": "node",
      "id": 6359713837,
      "lat": 25.1473551,
      "lon": 121.7719877
    },
    {
      "type": "node",
      "id": 6359713838,
      "lat": 25.1474264,
      "lon": 121.7719202
    },
    {
      "type": "node",
      "id": 6359713839,
      "lat": 25.1471431,
      "lon": 121.7713777
    },
    {
      "type": "node",
      "id": 6359713840,
      "lat": 25.1470724,
      "lon": 121.7714403
    },
    {
      "type": "node",
      "id": 6359713841,
      "lat": 25.1471366,
      "lon": 121.7713987
    },
    {
      "type": "node",
      "id": 6359713842,
      "lat": 25.1471242,
      "lon": 121.7714202
    },
    {
      "type": "node",
      "id": 6359713843,
      "lat": 25.1471045,
      "lon": 121.7714369
    },
    {
      "type": "node",
      "id": 6359713844,
      "lat": 25.147087,
      "lon": 121.7714398
    },
    {
      "type": "node",
      "id": 6359713845,
      "lat": 25.1478664,
      "lon": 121.7724228
    },
    {
      "type": "node",
      "id": 6359713846,
      "lat": 25.1481201,
      "lon": 121.7721927
    },
    {
      "type": "node",
      "id": 6359713847,
      "lat": 25.1480635,
      "lon": 121.7721133
    },
    {
      "type": "node",
      "id": 6359713848,
      "lat": 25.1480298,
      "lon": 121.7721403
    },
    {
      "type": "node",
      "id": 6359713849,
      "lat": 25.1480115,
      "lon": 121.772115
    },
    {
      "type": "node",
      "id": 6359713850,
      "lat": 25.146567,
      "lon": 121.7718948
    },
    {
      "type": "node",
      "id": 6359713851,
      "lat": 25.1466562,
      "lon": 121.7720329
    },
    {
      "type": "node",
      "id": 6359713852,
      "lat": 25.1464456,
      "lon": 121.7721989
    },
    {
      "type": "node",
      "id": 6359713853,
      "lat": 25.1463563,
      "lon": 121.7720608
    },
    {
      "type": "node",
      "id": 6843967613,
      "lat": 25.1445123,
      "lon": 121.7711527
    },
    {
      "type": "node",
      "id": 6843967614,
      "lat": 25.1441784,
      "lon": 121.7723702
    },
    {
      "type": "node",
      "id": 6843967615,
      "lat": 25.1442677,
      "lon": 121.7723917
    },
    {
      "type": "node",
      "id": 6843967616,
      "lat": 25.1448016,
      "lon": 121.7704778
    },
    {
      "type": "node",
      "id": 6843967617,
      "lat": 25.1447482,
      "lon": 121.7707809
    },
    {
      "type": "node",
      "id": 6843967618,
      "lat": 25.1446317,
      "lon": 121.7707514
    },
    {
      "type": "node",
      "id": 6843967619,
      "lat": 25.1446778,
      "lon": 121.7704402
    },
    {
      "type": "node",
      "id": 6843967620,
      "lat": 25.1446608,
      "lon": 121.7704322
    },
    {
      "type": "node",
      "id": 6843967621,
      "lat": 25.144622,
      "lon": 121.7705636
    },
    {
      "type": "node",
      "id": 6843967622,
      "lat": 25.1442796,
      "lon": 121.7704644
    },
    {
      "type": "node",
      "id": 6843967623,
      "lat": 25.1443039,
      "lon": 121.7703276
    },
    {
      "type": "node",
      "id": 12250189460,
      "lat": 25.1444231,
      "lon": 121.7711311
    },
    {
      "type": "node",
      "id": 3715758347,
      "lat": 25.1492547,
      "lon": 121.7751936
    },
    {
      "type": "node",
      "id": 3715758348,
      "lat": 25.1491755,
      "lon": 121.7753294
    },
    {
      "type": "node",
      "id": 3715758349,
      "lat": 25.1493687,
      "lon": 121.7754671
    },
    {
      "type": "node",
      "id": 3715758350,
      "lat": 25.1492779,
      "lon": 121.7756225
    },
    {
      "type": "node",
      "id": 3715758366,
      "lat": 25.1493285,
      "lon": 121.7781685
    },
    {
      "type": "node",
      "id": 3715758370,
      "lat": 25.1494318,
      "lon": 121.776888
    },
    {
      "type": "node",
      "id": 3715758371,
      "lat": 25.1492991,
      "lon": 121.7769727
    },
    {
      "type": "node",
      "id": 3715758372,
      "lat": 25.1491694,
      "lon": 121.7771779
    },
    {
      "type": "node",
      "id": 3715758373,
      "lat": 25.1492343,
      "lon": 121.7773407
    },
    {
      "type": "node",
      "id": 3715758390,
      "lat": 25.1491324,
      "lon": 121.7780517
    },
    {
      "type": "node",
      "id": 3715758391,
      "lat": 25.1492309,
      "lon": 121.7781182
    },
    {
      "type": "node",
      "id": 3715758392,
      "lat": 25.1494147,
      "lon": 121.7778096
    },
    {
      "type": "node",
      "id": 3715758396,
      "lat": 25.149392,
      "lon": 121.7785937
    },
    {
      "type": "node",
      "id": 3715758400,
      "lat": 25.1493996,
      "lon": 121.7789532
    },
    {
      "type": "node",
      "id": 3715758404,
      "lat": 25.1488888,
      "lon": 121.7786771
    },
    {
      "type": "node",
      "id": 3715758405,
      "lat": 25.1487341,
      "lon": 121.778924
    },
    {
      "type": "node",
      "id": 3715758408,
      "lat": 25.1488762,
      "lon": 121.7785079
    },
    {
      "type": "node",
      "id": 3715758411,
      "lat": 25.1486985,
      "lon": 121.778812
    },
    {
      "type": "node",
      "id": 3715758412,
      "lat": 25.148623,
      "lon": 121.7787582
    },
    {
      "type": "node",
      "id": 3715758415,
      "lat": 25.1487384,
      "lon": 121.7789741
    },
    {
      "type": "node",
      "id": 3715758438,
      "lat": 25.149068,
      "lon": 121.7752285
    },
    {
      "type": "node",
      "id": 3715758439,
      "lat": 25.1488478,
      "lon": 121.775033
    },
    {
      "type": "node",
      "id": 3715758440,
      "lat": 25.1486883,
      "lon": 121.7752524
    },
    {
      "type": "node",
      "id": 3715758441,
      "lat": 25.1489084,
      "lon": 121.7754478
    },
    {
      "type": "node",
      "id": 3715758442,
      "lat": 25.1487465,
      "lon": 121.7754722
    },
    {
      "type": "node",
      "id": 3715758443,
      "lat": 25.1486748,
      "lon": 121.7755818
    },
    {
      "type": "node",
      "id": 3715758444,
      "lat": 25.1485398,
      "lon": 121.7754741
    },
    {
      "type": "node",
      "id": 3715758445,
      "lat": 25.1485727,
      "lon": 121.7755639
    },
    {
      "type": "node",
      "id": 3715758446,
      "lat": 25.1482975,
      "lon": 121.7756867
    },
    {
      "type": "node",
      "id": 3715758447,
      "lat": 25.148267,
      "lon": 121.7756032
    },
    {
      "type": "node",
      "id": 3715758448,
      "lat": 25.1481476,
      "lon": 121.7756564
    },
    {
      "type": "node",
      "id": 3715758449,
      "lat": 25.148102,
      "lon": 121.7755314
    },
    {
      "type": "node",
      "id": 3715758450,
      "lat": 25.1485631,
      "lon": 121.7753258
    },
    {
      "type": "node",
      "id": 3717114082,
      "lat": 25.1492365,
      "lon": 121.7743852
    },
    {
      "type": "node",
      "id": 3717114085,
      "lat": 25.1490858,
      "lon": 121.7744202
    },
    {
      "type": "node",
      "id": 3717114088,
      "lat": 25.1491718,
      "lon": 121.7738204
    },
    {
      "type": "node",
      "id": 3717114089,
      "lat": 25.149098,
      "lon": 121.7737576
    },
    {
      "type": "node",
      "id": 3717114090,
      "lat": 25.1494069,
      "lon": 121.7733145
    },
    {
      "type": "node",
      "id": 3717114093,
      "lat": 25.1493339,
      "lon": 121.7732125
    },
    {
      "type": "node",
      "id": 3717114382,
      "lat": 25.1493801,
      "lon": 121.776921
    },
    {
      "type": "node",
      "id": 3785992661,
      "lat": 25.1487471,
      "lon": 121.7737884
    },
    {
      "type": "node",
      "id": 3785992662,
      "lat": 25.1484649,
      "lon": 121.7738211
    },
    {
      "type": "node",
      "id": 3785992663,
      "lat": 25.1484712,
      "lon": 121.7739705
    },
    {
      "type": "node",
      "id": 3785992664,
      "lat": 25.1486794,
      "lon": 121.7739425
    },
    {
      "type": "node",
      "id": 3785992665,
      "lat": 25.1486361,
      "lon": 121.7740254
    },
    {
      "type": "node",
      "id": 3785992666,
      "lat": 25.1487407,
      "lon": 121.7741118
    },
    {
      "type": "node",
      "id": 3785992667,
      "lat": 25.1488813,
      "lon": 121.773883
    },
    {
      "type": "node",
      "id": 3785992668,
      "lat": 25.1488686,
      "lon": 121.7738725
    },
    {
      "type": "node",
      "id": 4891309457,
      "lat": 25.1479546,
      "lon": 121.7726437
    },
    {
      "type": "node",
      "id": 5255271974,
      "lat": 25.1485176,
      "lon": 121.7789536
    },
    {
      "type": "node",
      "id": 5255271975,
      "lat": 25.1484602,
      "lon": 121.7789882
    },
    {
      "type": "node",
      "id": 5255271986,
      "lat": 25.1488198,
      "lon": 121.7784677
    },
    {
      "type": "node",
      "id": 5255271987,
      "lat": 25.1484341,
      "lon": 121.7788672
    },
    {
      "type": "node",
      "id": 5255271988,
      "lat": 25.1488028,
      "lon": 121.7784969
    },
    {
      "type": "node",
      "id": 5255271989,
      "lat": 25.1486035,
      "lon": 121.7786052
    },
    {
      "type": "node",
      "id": 5255271990,
      "lat": 25.1484676,
      "lon": 121.7788929
    },
    {
      "type": "node",
      "id": 5255271991,
      "lat": 25.1487692,
      "lon": 121.7784729
    },
    {
      "type": "node",
      "id": 5255271992,
      "lat": 25.1491177,
      "lon": 121.7774525
    },
    {
      "type": "node",
      "id": 5255271993,
      "lat": 25.1486586,
      "lon": 121.778664
    },
    {
      "type": "node",
      "id": 5255271994,
      "lat": 25.148459,
      "lon": 121.7789075
    },
    {
      "type": "node",
      "id": 5255272002,
      "lat": 25.1489623,
      "lon": 121.7787262
    },
    {
      "type": "node",
      "id": 5255272003,
      "lat": 25.1490738,
      "lon": 121.7787186
    },
    {
      "type": "node",
      "id": 5304364401,
      "lat": 25.1446386,
      "lon": 121.7782718
    },
    {
      "type": "node",
      "id": 5304364403,
      "lat": 25.144637,
      "lon": 121.7782939
    },
    {
      "type": "node",
      "id": 5304364405,
      "lat": 25.1446809,
      "lon": 121.7782979
    },
    {
      "type": "node",
      "id": 5304364406,
      "lat": 25.1446825,
      "lon": 121.7782758
    },
    {
      "type": "node",
      "id": 6359643433,
      "lat": 25.1444452,
      "lon": 121.772462
    },
    {
      "type": "node",
      "id": 6359707148,
      "lat": 25.1469914,
      "lon": 121.7724429
    },
    {
      "type": "node",
      "id": 6359707149,
      "lat": 25.1467785,
      "lon": 121.772628
    },
    {
      "type": "node",
      "id": 6359707150,
      "lat": 25.146655,
      "lon": 121.7724546
    },
    {
      "type": "node",
      "id": 6359707172,
      "lat": 25.147356,
      "lon": 121.7725386
    },
    {
      "type": "node",
      "id": 6359707175,
      "lat": 25.1474049,
      "lon": 121.772983
    },
    {
      "type": "node",
      "id": 6359707176,
      "lat": 25.1475135,
      "lon": 121.7731368
    },
    {
      "type": "node",
      "id": 6359707177,
      "lat": 25.1473254,
      "lon": 121.7733041
    },
    {
      "type": "node",
      "id": 6359707178,
      "lat": 25.1472214,
      "lon": 121.7731435
    },
    {
      "type": "node",
      "id": 6359707180,
      "lat": 25.1478986,
      "lon": 121.7725173
    },
    {
      "type": "node",
      "id": 6359707181,
      "lat": 25.1478934,
      "lon": 121.7725647
    },
    {
      "type": "node",
      "id": 6359707182,
      "lat": 25.1480256,
      "lon": 121.7727354
    },
    {
      "type": "node",
      "id": 6359707183,
      "lat": 25.1480771,
      "lon": 121.7727354
    },
    {
      "type": "node",
      "id": 6359713795,
      "lat": 25.1474196,
      "lon": 121.7726558
    },
    {
      "type": "node",
      "id": 6359713797,
      "lat": 25.1478866,
      "lon": 121.7724491
    },
    {
      "type": "node",
      "id": 6359713798,
      "lat": 25.1475203,
      "lon": 121.7727871
    },
    {
      "type": "node",
      "id": 6359713799,
      "lat": 25.1475078,
      "lon": 121.7727703
    },
    {
      "type": "node",
      "id": 6359713800,
      "lat": 25.1474543,
      "lon": 121.7728243
    },
    {
      "type": "node",
      "id": 6359713801,
      "lat": 25.1473801,
      "lon": 121.7727354
    },
    {
      "type": "node",
      "id": 6359713802,
      "lat": 25.1474367,
      "lon": 121.7726785
    },
    {
      "type": "node",
      "id": 6359713854,
      "lat": 25.1473634,
      "lon": 121.7728713
    },
    {
      "type": "node",
      "id": 6359713855,
      "lat": 25.1472716,
      "lon": 121.7729524
    },
    {
      "type": "node",
      "id": 6359713856,
      "lat": 25.1471278,
      "lon": 121.7727462
    },
    {
      "type": "node",
      "id": 6359713857,
      "lat": 25.1471416,
      "lon": 121.7726634
    },
    {
      "type": "node",
      "id": 6359713858,
      "lat": 25.1472089,
      "lon": 121.7726584
    },
    {
      "type": "node",
      "id": 9254976798,
      "lat": 25.149223,
      "lon": 121.7774737
    },
    {
      "type": "node",
      "id": 9254976799,
      "lat": 25.1490842,
      "lon": 121.7777549
    },
    {
      "type": "node",
      "id": 9254976800,
      "lat": 25.1490136,
      "lon": 121.7783139
    },
    {
      "type": "node",
      "id": 9254976801,
      "lat": 25.1489164,
      "lon": 121.7784705
    },
    {
      "type": "node",
      "id": 9254976802,
      "lat": 25.1488191,
      "lon": 121.7783968
    },
    {
      "type": "node",
      "id": 9254976803,
      "lat": 25.1489164,
      "lon": 121.7782402
    },
    {
      "type": "node",
      "id": 9257049868,
      "lat": 25.1491779,
      "lon": 121.7779756
    },
    {
      "type": "node",
      "id": 9257049869,
      "lat": 25.149173,
      "lon": 121.7779501
    },
    {
      "type": "node",
      "id": 9257049870,
      "lat": 25.1491949,
      "lon": 121.7779179
    },
    {
      "type": "node",
      "id": 9257049871,
      "lat": 25.1491973,
      "lon": 121.7778495
    },
    {
      "type": "node",
      "id": 9257049872,
      "lat": 25.1491354,
      "lon": 121.77782
    },
    {
      "type": "node",
      "id": 9257049873,
      "lat": 25.1491548,
      "lon": 121.7780131
    },
    {
      "type": "node",
      "id": 9257049875,
      "lat": 25.1491274,
      "lon": 121.7777785
    },
    {
      "type": "node",
      "id": 9257049876,
      "lat": 25.1492358,
      "lon": 121.7775646
    },
    {
      "type": "node",
      "id": 12440057366,
      "lat": 25.1493238,
      "lon": 121.7746138
    },
    {
      "type": "node",
      "id": 3717114108,
      "lat": 25.1497597,
      "lon": 121.7721793
    },
    {
      "type": "node",
      "id": 3717114109,
      "lat": 25.1496256,
      "lon": 121.7723541
    },
    {
      "type": "node",
      "id": 3717747798,
      "lat": 25.1537622,
      "lon": 121.7717549
    },
    {
      "type": "node",
      "id": 3717747818,
      "lat": 25.1537961,
      "lon": 121.7715017
    },
    {
      "type": "node",
      "id": 3717747819,
      "lat": 25.153663,
      "lon": 121.7714953
    },
    {
      "type": "node",
      "id": 3717747820,
      "lat": 25.1537887,
      "lon": 121.7716862
    },
    {
      "type": "node",
      "id": 3726877242,
      "lat": 25.1514561,
      "lon": 121.7711515
    },
    {
      "type": "node",
      "id": 3726877243,
      "lat": 25.1513302,
      "lon": 121.7710991
    },
    {
      "type": "node",
      "id": 3726877244,
      "lat": 25.1514044,
      "lon": 121.7708816
    },
    {
      "type": "node",
      "id": 3726877245,
      "lat": 25.1515303,
      "lon": 121.7709341
    },
    {
      "type": "node",
      "id": 5255271929,
      "lat": 25.1506646,
      "lon": 121.7724237
    },
    {
      "type": "node",
      "id": 5255271931,
      "lat": 25.1499415,
      "lon": 121.7724301
    },
    {
      "type": "node",
      "id": 5685309433,
      "lat": 25.1536525,
      "lon": 121.771831
    },
    {
      "type": "node",
      "id": 6438637567,
      "lat": 25.1537324,
      "lon": 121.7717546
    },
    {
      "type": "node",
      "id": 6438637568,
      "lat": 25.1537258,
      "lon": 121.7718267
    },
    {
      "type": "node",
      "id": 3715757624,
      "lat": 25.1505384,
      "lon": 121.7753051
    },
    {
      "type": "node",
      "id": 3715758325,
      "lat": 25.1500614,
      "lon": 121.7754221
    },
    {
      "type": "node",
      "id": 3715758326,
      "lat": 25.150341,
      "lon": 121.775628
    },
    {
      "type": "node",
      "id": 3715758327,
      "lat": 25.1500532,
      "lon": 121.7750152
    },
    {
      "type": "node",
      "id": 3715758328,
      "lat": 25.1497347,
      "lon": 121.7747278
    },
    {
      "type": "node",
      "id": 3715758329,
      "lat": 25.1494771,
      "lon": 121.7750767
    },
    {
      "type": "node",
      "id": 3715758330,
      "lat": 25.1497953,
      "lon": 121.7753639
    },
    {
      "type": "node",
      "id": 3715758331,
      "lat": 25.1507508,
      "lon": 121.7749729
    },
    {
      "type": "node",
      "id": 3715758332,
      "lat": 25.1504804,
      "lon": 121.7747619
    },
    {
      "type": "node",
      "id": 3715758333,
      "lat": 25.150268,
      "lon": 121.7750941
    },
    {
      "type": "node",
      "id": 3715758334,
      "lat": 25.1507024,
      "lon": 121.7751522
    },
    {
      "type": "node",
      "id": 3715758335,
      "lat": 25.1507112,
      "lon": 121.7752206
    },
    {
      "type": "node",
      "id": 3715758336,
      "lat": 25.15072,
      "lon": 121.775289
    },
    {
      "type": "node",
      "id": 3715758337,
      "lat": 25.1506965,
      "lon": 121.7754714
    },
    {
      "type": "node",
      "id": 3715758338,
      "lat": 25.1505933,
      "lon": 121.7757156
    },
    {
      "type": "node",
      "id": 3715758339,
      "lat": 25.1505432,
      "lon": 121.7758133
    },
    {
      "type": "node",
      "id": 3715758340,
      "lat": 25.1504223,
      "lon": 121.7756961
    },
    {
      "type": "node",
      "id": 3715758341,
      "lat": 25.1504577,
      "lon": 121.775644
    },
    {
      "type": "node",
      "id": 3715758342,
      "lat": 25.1503765,
      "lon": 121.7755701
    },
    {
      "type": "node",
      "id": 3715758343,
      "lat": 25.1504917,
      "lon": 121.7753815
    },
    {
      "type": "node",
      "id": 3715758344,
      "lat": 25.1505638,
      "lon": 121.7754355
    },
    {
      "type": "node",
      "id": 3715758345,
      "lat": 25.1506316,
      "lon": 121.7753867
    },
    {
      "type": "node",
      "id": 3715758346,
      "lat": 25.1506282,
      "lon": 121.7751645
    },
    {
      "type": "node",
      "id": 3715758351,
      "lat": 25.1494618,
      "lon": 121.7757534
    },
    {
      "type": "node",
      "id": 3715758352,
      "lat": 25.1496318,
      "lon": 121.7754623
    },
    {
      "type": "node",
      "id": 3715758353,
      "lat": 25.1497823,
      "lon": 121.7756488
    },
    {
      "type": "node",
      "id": 3715758354,
      "lat": 25.1496293,
      "lon": 121.7758882
    },
    {
      "type": "node",
      "id": 3715758355,
      "lat": 25.1496352,
      "lon": 121.7759469
    },
    {
      "type": "node",
      "id": 3715758356,
      "lat": 25.1497601,
      "lon": 121.7760483
    },
    {
      "type": "node",
      "id": 3715758357,
      "lat": 25.1497969,
      "lon": 121.7760137
    },
    {
      "type": "node",
      "id": 3715758358,
      "lat": 25.1499395,
      "lon": 121.7757771
    },
    {
      "type": "node",
      "id": 3715758359,
      "lat": 25.1501128,
      "lon": 121.7759045
    },
    {
      "type": "node",
      "id": 3715758360,
      "lat": 25.1501128,
      "lon": 121.7759859
    },
    {
      "type": "node",
      "id": 3715758361,
      "lat": 25.1500822,
      "lon": 121.7760366
    },
    {
      "type": "node",
      "id": 3715758362,
      "lat": 25.15042,
      "lon": 121.7762852
    },
    {
      "type": "node",
      "id": 3715758363,
      "lat": 25.1503419,
      "lon": 121.7764147
    },
    {
      "type": "node",
      "id": 3715758364,
      "lat": 25.1494945,
      "lon": 121.7779071
    },
    {
      "type": "node",
      "id": 3715758365,
      "lat": 25.1496646,
      "lon": 121.778033
    },
    {
      "type": "node",
      "id": 3715758367,
      "lat": 25.1494943,
      "lon": 121.7783013
    },
    {
      "type": "node",
      "id": 3715758368,
      "lat": 25.1495589,
      "lon": 121.7775709
    },
    {
      "type": "node",
      "id": 3715758369,
      "lat": 25.1498028,
      "lon": 121.7771511
    },
    {
      "type": "node",
      "id": 3715758374,
      "lat": 25.1500236,
      "lon": 121.7774144
    },
    {
      "type": "node",
      "id": 3715758375,
      "lat": 25.1498874,
      "lon": 121.7773136
    },
    {
      "type": "node",
      "id": 3715758376,
      "lat": 25.1497606,
      "lon": 121.7781073
    },
    {
      "type": "node",
      "id": 3715758377,
      "lat": 25.1499044,
      "lon": 121.7778793
    },
    {
      "type": "node",
      "id": 3715758378,
      "lat": 25.1498067,
      "lon": 121.7778042
    },
    {
      "type": "node",
      "id": 3715758379,
      "lat": 25.1504003,
      "lon": 121.7765239
    },
    {
      "type": "node",
      "id": 3715758380,
      "lat": 25.1502432,
      "lon": 121.7764076
    },
    {
      "type": "node",
      "id": 3715758381,
      "lat": 25.1499905,
      "lon": 121.7768244
    },
    {
      "type": "node",
      "id": 3715758382,
      "lat": 25.1500609,
      "lon": 121.7768765
    },
    {
      "type": "node",
      "id": 3715758383,
      "lat": 25.1499757,
      "lon": 121.7770171
    },
    {
      "type": "node",
      "id": 3715758384,
      "lat": 25.1500388,
      "lon": 121.7770638
    },
    {
      "type": "node",
      "id": 3715758385,
      "lat": 25.1501796,
      "lon": 121.7771571
    },
    {
      "type": "node",
      "id": 3715758386,
      "lat": 25.1501175,
      "lon": 121.7771112
    },
    {
      "type": "node",
      "id": 3715758387,
      "lat": 25.1502852,
      "lon": 121.7768345
    },
    {
      "type": "node",
      "id": 3715758388,
      "lat": 25.1502347,
      "lon": 121.7767972
    },
    {
      "type": "node",
      "id": 3715758389,
      "lat": 25.1494944,
      "lon": 121.7779019
    },
    {
      "type": "node",
      "id": 3715758393,
      "lat": 25.1498398,
      "lon": 121.7781672
    },
    {
      "type": "node",
      "id": 3715758394,
      "lat": 25.1496793,
      "lon": 121.7784353
    },
    {
      "type": "node",
      "id": 3715758395,
      "lat": 25.1495287,
      "lon": 121.7786917
    },
    {
      "type": "node",
      "id": 3715758397,
      "lat": 25.1495426,
      "lon": 121.7783373
    },
    {
      "type": "node",
      "id": 3715758398,
      "lat": 25.149662,
      "lon": 121.7787774
    },
    {
      "type": "node",
      "id": 3715758399,
      "lat": 25.1495588,
      "lon": 121.7787122
    },
    {
      "type": "node",
      "id": 3715758403,
      "lat": 25.1495234,
      "lon": 121.7789728
    },
    {
      "type": "node",
      "id": 3717114079,
      "lat": 25.1500264,
      "lon": 121.7742902
    },
    {
      "type": "node",
      "id": 3717114080,
      "lat": 25.1499379,
      "lon": 121.7742183
    },
    {
      "type": "node",
      "id": 3717114081,
      "lat": 25.1496191,
      "lon": 121.7746965
    },
    {
      "type": "node",
      "id": 3717114083,
      "lat": 25.1497879,
      "lon": 121.7735578
    },
    {
      "type": "node",
      "id": 3717114084,
      "lat": 25.1497046,
      "lon": 121.7734917
    },
    {
      "type": "node",
      "id": 3717114086,
      "lat": 25.1496395,
      "lon": 121.7748706
    },
    {
      "type": "node",
      "id": 3717114087,
      "lat": 25.1494807,
      "lon": 121.7733773
    },
    {
      "type": "node",
      "id": 3717114091,
      "lat": 25.1497465,
      "lon": 121.7729709
    },
    {
      "type": "node",
      "id": 3717114092,
      "lat": 25.1495844,
      "lon": 121.7728384
    },
    {
      "type": "node",
      "id": 3717114094,
      "lat": 25.149496,
      "lon": 121.773345
    },
    {
      "type": "node",
      "id": 3717114095,
      "lat": 25.1500761,
      "lon": 121.7735064
    },
    {
      "type": "node",
      "id": 3717114097,
      "lat": 25.149956,
      "lon": 121.7736911
    },
    {
      "type": "node",
      "id": 3717114112,
      "lat": 25.1506829,
      "lon": 121.7726716
    },
    {
      "type": "node",
      "id": 3717114113,
      "lat": 25.1501323,
      "lon": 121.7727165
    },
    {
      "type": "node",
      "id": 3717114114,
      "lat": 25.1498447,
      "lon": 121.7725247
    },
    {
      "type": "node",
      "id": 3717114116,
      "lat": 25.1508059,
      "lon": 121.7727002
    },
    {
      "type": "node",
      "id": 3717114117,
      "lat": 25.1506023,
      "lon": 121.7732886
    },
    {
      "type": "node",
      "id": 3717114121,
      "lat": 25.1508129,
      "lon": 121.7731645
    },
    {
      "type": "node",
      "id": 3717114124,
      "lat": 25.1506199,
      "lon": 121.7734618
    },
    {
      "type": "node",
      "id": 3717114325,
      "lat": 25.1503875,
      "lon": 121.7738641
    },
    {
      "type": "node",
      "id": 3717114326,
      "lat": 25.1505755,
      "lon": 121.7739968
    },
    {
      "type": "node",
      "id": 3717114375,
      "lat": 25.150104,
      "lon": 121.7753544
    },
    {
      "type": "node",
      "id": 3717114376,
      "lat": 25.1499113,
      "lon": 121.7752071
    },
    {
      "type": "node",
      "id": 3717114378,
      "lat": 25.1497653,
      "lon": 121.7756754
    },
    {
      "type": "node",
      "id": 3717114379,
      "lat": 25.1495858,
      "lon": 121.7755411
    },
    {
      "type": "node",
      "id": 3717114383,
      "lat": 25.1502755,
      "lon": 121.7763658
    },
    {
      "type": "node",
      "id": 3717114384,
      "lat": 25.1497563,
      "lon": 121.7772311
    },
    {
      "type": "node",
      "id": 3717114387,
      "lat": 25.1506659,
      "lon": 121.7733155
    },
    {
      "type": "node",
      "id": 3717114388,
      "lat": 25.1506756,
      "lon": 121.7735011
    },
    {
      "type": "node",
      "id": 3717114395,
      "lat": 25.1507398,
      "lon": 121.7757835
    },
    {
      "type": "node",
      "id": 3717114396,
      "lat": 25.1506032,
      "lon": 121.7759843
    },
    {
      "type": "node",
      "id": 3717114397,
      "lat": 25.1505349,
      "lon": 121.7759276
    },
    {
      "type": "node",
      "id": 3717114398,
      "lat": 25.1506716,
      "lon": 121.7757269
    },
    {
      "type": "node",
      "id": 4436789875,
      "lat": 25.150808,
      "lon": 121.7735944
    },
    {
      "type": "node",
      "id": 5255271818,
      "lat": 25.1509444,
      "lon": 121.7732035
    },
    {
      "type": "node",
      "id": 5255271819,
      "lat": 25.1508906,
      "lon": 121.7734089
    },
    {
      "type": "node",
      "id": 5255271820,
      "lat": 25.1507497,
      "lon": 121.7733504
    },
    {
      "type": "node",
      "id": 5255271921,
      "lat": 25.1509523,
      "lon": 121.772762
    },
    {
      "type": "node",
      "id": 5255271922,
      "lat": 25.1509162,
      "lon": 121.7733338
    },
    {
      "type": "node",
      "id": 5255271923,
      "lat": 25.1509021,
      "lon": 121.7733279
    },
    {
      "type": "node",
      "id": 5255271924,
      "lat": 25.1508811,
      "lon": 121.7731928
    },
    {
      "type": "node",
      "id": 5255271925,
      "lat": 25.1508857,
      "lon": 121.7731791
    },
    {
      "type": "node",
      "id": 5255271930,
      "lat": 25.1502113,
      "lon": 121.7724456
    },
    {
      "type": "node",
      "id": 5302884764,
      "lat": 25.1495585,
      "lon": 121.7733758
    },
    {
      "type": "node",
      "id": 5302884765,
      "lat": 25.1496785,
      "lon": 121.7731911
    },
    {
      "type": "node",
      "id": 5677896283,
      "lat": 25.1516444,
      "lon": 121.7734869
    },
    {
      "type": "node",
      "id": 5677896284,
      "lat": 25.1517383,
      "lon": 121.7735499
    },
    {
      "type": "node",
      "id": 5677896285,
      "lat": 25.1516591,
      "lon": 121.7736962
    },
    {
      "type": "node",
      "id": 5677896286,
      "lat": 25.1515598,
      "lon": 121.7736312
    },
    {
      "type": "node",
      "id": 6438637570,
      "lat": 25.1512235,
      "lon": 121.7744248
    },
    {
      "type": "node",
      "id": 6438637571,
      "lat": 25.1512332,
      "lon": 121.7745388
    },
    {
      "type": "node",
      "id": 6438637572,
      "lat": 25.1512964,
      "lon": 121.7745307
    },
    {
      "type": "node",
      "id": 6438637573,
      "lat": 25.1513121,
      "lon": 121.7746997
    },
    {
      "type": "node",
      "id": 6438637574,
      "lat": 25.151215,
      "lon": 121.7747131
    },
    {
      "type": "node",
      "id": 6438637575,
      "lat": 25.1512102,
      "lon": 121.7746005
    },
    {
      "type": "node",
      "id": 6438637576,
      "lat": 25.1511446,
      "lon": 121.7746112
    },
    {
      "type": "node",
      "id": 6438637577,
      "lat": 25.1511288,
      "lon": 121.7744355
    },
    {
      "type": "node",
      "id": 9257049874,
      "lat": 25.1495627,
      "lon": 121.7777972
    },
    {
      "type": "node",
      "id": 12408789688,
      "lat": 25.1517659,
      "lon": 121.7756882
    },
    {
      "type": "node",
      "id": 12408789689,
      "lat": 25.1516987,
      "lon": 121.7757793
    },
    {
      "type": "node",
      "id": 12408789690,
      "lat": 25.1517161,
      "lon": 121.775795
    },
    {
      "type": "node",
      "id": 12408789691,
      "lat": 25.1517833,
      "lon": 121.7757038
    },
    {
      "type": "node",
      "id": 12408789692,
      "lat": 25.1518391,
      "lon": 121.7757501
    },
    {
      "type": "node",
      "id": 12408789693,
      "lat": 25.1517719,
      "lon": 121.7758413
    },
    {
      "type": "node",
      "id": 12408789694,
      "lat": 25.1517893,
      "lon": 121.7758569
    },
    {
      "type": "node",
      "id": 12408789695,
      "lat": 25.1518565,
      "lon": 121.7757658
    },
    {
      "type": "node",
      "id": 12408789696,
      "lat": 25.1519128,
      "lon": 121.775817
    },
    {
      "type": "node",
      "id": 12408789697,
      "lat": 25.1518456,
      "lon": 121.7759082
    },
    {
      "type": "node",
      "id": 12408789698,
      "lat": 25.151863,
      "lon": 121.7759238
    },
    {
      "type": "node",
      "id": 12408789699,
      "lat": 25.1519303,
      "lon": 121.7758327
    },
    {
      "type": "node",
      "id": 12408789700,
      "lat": 25.1519308,
      "lon": 121.7758334
    },
    {
      "type": "node",
      "id": 12408829901,
      "lat": 25.1518636,
      "lon": 121.7759245
    },
    {
      "type": "node",
      "id": 12408829902,
      "lat": 25.151881,
      "lon": 121.7759402
    },
    {
      "type": "node",
      "id": 12408829903,
      "lat": 25.1519482,
      "lon": 121.775849
    },
    {
      "type": "node",
      "id": 12408829904,
      "lat": 25.151877,
      "lon": 121.7757832
    },
    {
      "type": "node",
      "id": 12408829905,
      "lat": 25.1518098,
      "lon": 121.7758744
    },
    {
      "type": "node",
      "id": 12408829906,
      "lat": 25.1518272,
      "lon": 121.77589
    },
    {
      "type": "node",
      "id": 12408829907,
      "lat": 25.1518944,
      "lon": 121.7757989
    },
    {
      "type": "node",
      "id": 12408829908,
      "lat": 25.151895,
      "lon": 121.7757996
    },
    {
      "type": "node",
      "id": 12408829909,
      "lat": 25.1518278,
      "lon": 121.7758907
    },
    {
      "type": "node",
      "id": 12408829910,
      "lat": 25.1518452,
      "lon": 121.7759064
    },
    {
      "type": "node",
      "id": 12408829911,
      "lat": 25.1519124,
      "lon": 121.7758152
    },
    {
      "type": "node",
      "id": 12408829912,
      "lat": 25.1518576,
      "lon": 121.7757665
    },
    {
      "type": "node",
      "id": 12408829913,
      "lat": 25.1517904,
      "lon": 121.7758576
    },
    {
      "type": "node",
      "id": 12408829914,
      "lat": 25.1518078,
      "lon": 121.7758733
    },
    {
      "type": "node",
      "id": 12408829915,
      "lat": 25.151875,
      "lon": 121.7757821
    },
    {
      "type": "node",
      "id": 12408829916,
      "lat": 25.151794,
      "lon": 121.7757102
    },
    {
      "type": "node",
      "id": 12408829917,
      "lat": 25.1517268,
      "lon": 121.7758013
    },
    {
      "type": "node",
      "id": 12408829918,
      "lat": 25.1517442,
      "lon": 121.775817
    },
    {
      "type": "node",
      "id": 12408829919,
      "lat": 25.1518114,
      "lon": 121.7757259
    },
    {
      "type": "node",
      "id": 12408829920,
      "lat": 25.1518135,
      "lon": 121.7757276
    },
    {
      "type": "node",
      "id": 12408829921,
      "lat": 25.1517463,
      "lon": 121.7758188
    },
    {
      "type": "node",
      "id": 12408829922,
      "lat": 25.1517637,
      "lon": 121.7758344
    },
    {
      "type": "node",
      "id": 12408829923,
      "lat": 25.1518309,
      "lon": 121.7757433
    },
    {
      "type": "node",
      "id": 12408829924,
      "lat": 25.1516176,
      "lon": 121.7756338
    },
    {
      "type": "node",
      "id": 12408829925,
      "lat": 25.1517009,
      "lon": 121.7757114
    },
    {
      "type": "node",
      "id": 12408829926,
      "lat": 25.1516871,
      "lon": 121.7757294
    },
    {
      "type": "node",
      "id": 12408829927,
      "lat": 25.1516038,
      "lon": 121.7756518
    },
    {
      "type": "node",
      "id": 12408829928,
      "lat": 25.1515881,
      "lon": 121.7756432
    },
    {
      "type": "node",
      "id": 12408829929,
      "lat": 25.1516539,
      "lon": 121.7757028
    },
    {
      "type": "node",
      "id": 12408829930,
      "lat": 25.1516403,
      "lon": 121.7757212
    },
    {
      "type": "node",
      "id": 12408829931,
      "lat": 25.1515744,
      "lon": 121.7756616
    },
    {
      "type": "node",
      "id": 12408829932,
      "lat": 25.1516413,
      "lon": 121.7756231
    },
    {
      "type": "node",
      "id": 12408829933,
      "lat": 25.151715,
      "lon": 121.7756907
    },
    {
      "type": "node",
      "id": 12408829934,
      "lat": 25.1517021,
      "lon": 121.775708
    },
    {
      "type": "node",
      "id": 12408829935,
      "lat": 25.1516283,
      "lon": 121.7756403
    },
    {
      "type": "node",
      "id": 12408829936,
      "lat": 25.1517129,
      "lon": 121.7755317
    },
    {
      "type": "node",
      "id": 12408829937,
      "lat": 25.1517867,
      "lon": 121.7755993
    },
    {
      "type": "node",
      "id": 12408829938,
      "lat": 25.1517727,
      "lon": 121.7756167
    },
    {
      "type": "node",
      "id": 12408829939,
      "lat": 25.1516999,
      "lon": 121.7755489
    },
    {
      "type": "node",
      "id": 12408829940,
      "lat": 25.1517274,
      "lon": 121.7755135
    },
    {
      "type": "node",
      "id": 12408829941,
      "lat": 25.1518012,
      "lon": 121.7755812
    },
    {
      "type": "node",
      "id": 12408829942,
      "lat": 25.1517882,
      "lon": 121.7755985
    },
    {
      "type": "node",
      "id": 12408829943,
      "lat": 25.1517144,
      "lon": 121.7755308
    },
    {
      "type": "node",
      "id": 12408829944,
      "lat": 25.1517307,
      "lon": 121.7756725
    },
    {
      "type": "node",
      "id": 12408829945,
      "lat": 25.1516597,
      "lon": 121.7756049
    },
    {
      "type": "node",
      "id": 12408829946,
      "lat": 25.1516458,
      "lon": 121.7756226
    },
    {
      "type": "node",
      "id": 12408829947,
      "lat": 25.1517169,
      "lon": 121.7756902
    },
    {
      "type": "node",
      "id": 12408829948,
      "lat": 25.1517565,
      "lon": 121.7754772
    },
    {
      "type": "node",
      "id": 12408829949,
      "lat": 25.1518303,
      "lon": 121.7755449
    },
    {
      "type": "node",
      "id": 12408829950,
      "lat": 25.1518173,
      "lon": 121.7755622
    },
    {
      "type": "node",
      "id": 12408829951,
      "lat": 25.1517435,
      "lon": 121.7754945
    },
    {
      "type": "node",
      "id": 12408829952,
      "lat": 25.1517717,
      "lon": 121.7754576
    },
    {
      "type": "node",
      "id": 12408829953,
      "lat": 25.1518455,
      "lon": 121.7755252
    },
    {
      "type": "node",
      "id": 12408829954,
      "lat": 25.1518325,
      "lon": 121.7755425
    },
    {
      "type": "node",
      "id": 12408829955,
      "lat": 25.1517588,
      "lon": 121.7754748
    },
    {
      "type": "node",
      "id": 12408829956,
      "lat": 25.151785,
      "lon": 121.7754396
    },
    {
      "type": "node",
      "id": 12408829957,
      "lat": 25.1518599,
      "lon": 121.7755024
    },
    {
      "type": "node",
      "id": 12408829958,
      "lat": 25.1518467,
      "lon": 121.7755212
    },
    {
      "type": "node",
      "id": 12408829959,
      "lat": 25.1517725,
      "lon": 121.7754573
    },
    {
      "type": "node",
      "id": 12408829960,
      "lat": 25.1517476,
      "lon": 121.7754983
    },
    {
      "type": "node",
      "id": 12408829961,
      "lat": 25.151732,
      "lon": 121.7755177
    },
    {
      "type": "node",
      "id": 12408829962,
      "lat": 25.1517042,
      "lon": 121.7755536
    },
    {
      "type": "node",
      "id": 12408829963,
      "lat": 25.1517589,
      "lon": 121.7756349
    },
    {
      "type": "node",
      "id": 12408829964,
      "lat": 25.1516905,
      "lon": 121.7755719
    },
    {
      "type": "node",
      "id": 12408829965,
      "lat": 25.1517732,
      "lon": 121.7754296
    },
    {
      "type": "node",
      "id": 12408829966,
      "lat": 25.151874,
      "lon": 121.7754818
    },
    {
      "type": "node",
      "id": 12408829967,
      "lat": 25.1517873,
      "lon": 121.7754091
    },
    {
      "type": "node",
      "id": 12408829968,
      "lat": 25.1518269,
      "lon": 121.775209
    },
    {
      "type": "node",
      "id": 12408829969,
      "lat": 25.1515406,
      "lon": 121.7755823
    },
    {
      "type": "node",
      "id": 12408829970,
      "lat": 25.1515874,
      "lon": 121.7756261
    },
    {
      "type": "node",
      "id": 12408829971,
      "lat": 25.1518736,
      "lon": 121.7752528
    },
    {
      "type": "node",
      "id": 12408829972,
      "lat": 25.1516284,
      "lon": 121.775258
    },
    {
      "type": "node",
      "id": 12408829973,
      "lat": 25.151392,
      "lon": 121.7755087
    },
    {
      "type": "node",
      "id": 12408829974,
      "lat": 25.1514293,
      "lon": 121.7755516
    },
    {
      "type": "node",
      "id": 12408829975,
      "lat": 25.1516656,
      "lon": 121.7753009
    },
    {
      "type": "node",
      "id": 12408829976,
      "lat": 25.1513395,
      "lon": 121.7753605
    },
    {
      "type": "node",
      "id": 12408829977,
      "lat": 25.1512521,
      "lon": 121.7754574
    },
    {
      "type": "node",
      "id": 12408829978,
      "lat": 25.1512961,
      "lon": 121.7755059
    },
    {
      "type": "node",
      "id": 12408829979,
      "lat": 25.1513835,
      "lon": 121.775409
    },
    {
      "type": "node",
      "id": 12408829980,
      "lat": 25.1512309,
      "lon": 121.7755487
    },
    {
      "type": "node",
      "id": 12408829981,
      "lat": 25.1511174,
      "lon": 121.775536
    },
    {
      "type": "node",
      "id": 12408829982,
      "lat": 25.1510942,
      "lon": 121.7757889
    },
    {
      "type": "node",
      "id": 12408829983,
      "lat": 25.1512766,
      "lon": 121.7758093
    },
    {
      "type": "node",
      "id": 12408829984,
      "lat": 25.1512931,
      "lon": 121.7756298
    },
    {
      "type": "node",
      "id": 12408829985,
      "lat": 25.1512242,
      "lon": 121.775622
    },
    {
      "type": "node",
      "id": 2422431665,
      "lat": 25.1457195,
      "lon": 121.7855397
    },
    {
      "type": "node",
      "id": 2422431666,
      "lat": 25.1456404,
      "lon": 121.7854744
    },
    {
      "type": "node",
      "id": 3141154165,
      "lat": 25.1459239,
      "lon": 121.7834906
    },
    {
      "type": "node",
      "id": 3141154166,
      "lat": 25.1459837,
      "lon": 121.783595
    },
    {
      "type": "node",
      "id": 3141154167,
      "lat": 25.1458059,
      "lon": 121.7837192
    },
    {
      "type": "node",
      "id": 3141154168,
      "lat": 25.1457461,
      "lon": 121.7836148
    },
    {
      "type": "node",
      "id": 3509838918,
      "lat": 25.1471315,
      "lon": 121.7791897
    },
    {
      "type": "node",
      "id": 3509838919,
      "lat": 25.1470391,
      "lon": 121.7793714
    },
    {
      "type": "node",
      "id": 3509838920,
      "lat": 25.1469459,
      "lon": 121.7793136
    },
    {
      "type": "node",
      "id": 3509838921,
      "lat": 25.1470384,
      "lon": 121.7791319
    },
    {
      "type": "node",
      "id": 3715758407,
      "lat": 25.1494382,
      "lon": 121.7793118
    },
    {
      "type": "node",
      "id": 3717734303,
      "lat": 25.1491824,
      "lon": 121.7798374
    },
    {
      "type": "node",
      "id": 5255271976,
      "lat": 25.1483898,
      "lon": 121.7790936
    },
    {
      "type": "node",
      "id": 5255271977,
      "lat": 25.1486023,
      "lon": 121.7792473
    },
    {
      "type": "node",
      "id": 5255271979,
      "lat": 25.1490447,
      "lon": 121.7793834
    },
    {
      "type": "node",
      "id": 5255271980,
      "lat": 25.1492429,
      "lon": 121.7794655
    },
    {
      "type": "node",
      "id": 5255271981,
      "lat": 25.148984,
      "lon": 121.7793518
    },
    {
      "type": "node",
      "id": 5255272001,
      "lat": 25.1493626,
      "lon": 121.7793776
    },
    {
      "type": "node",
      "id": 5293089671,
      "lat": 25.1490199,
      "lon": 121.7827147
    },
    {
      "type": "node",
      "id": 5293089672,
      "lat": 25.1490236,
      "lon": 121.7831923
    },
    {
      "type": "node",
      "id": 5293089673,
      "lat": 25.1485739,
      "lon": 121.7831966
    },
    {
      "type": "node",
      "id": 5293089674,
      "lat": 25.1485718,
      "lon": 121.7829381
    },
    {
      "type": "node",
      "id": 5293089675,
      "lat": 25.1488898,
      "lon": 121.7829351
    },
    {
      "type": "node",
      "id": 5293089676,
      "lat": 25.1488887,
      "lon": 121.7827916
    },
    {
      "type": "node",
      "id": 5293089677,
      "lat": 25.1487648,
      "lon": 121.7833607
    },
    {
      "type": "node",
      "id": 5293089678,
      "lat": 25.148064,
      "lon": 121.7837278
    },
    {
      "type": "node",
      "id": 5293089679,
      "lat": 25.1487644,
      "lon": 121.7837294
    },
    {
      "type": "node",
      "id": 5293089680,
      "lat": 25.1485608,
      "lon": 121.7830896
    },
    {
      "type": "node",
      "id": 5293089681,
      "lat": 25.1485614,
      "lon": 121.7833604
    },
    {
      "type": "node",
      "id": 5293089682,
      "lat": 25.1480644,
      "lon": 121.7833598
    },
    {
      "type": "node",
      "id": 5293089683,
      "lat": 25.1480659,
      "lon": 121.7832429
    },
    {
      "type": "node",
      "id": 5293089684,
      "lat": 25.148378,
      "lon": 121.7832421
    },
    {
      "type": "node",
      "id": 5293089685,
      "lat": 25.1483777,
      "lon": 121.78309
    },
    {
      "type": "node",
      "id": 5293089686,
      "lat": 25.1485041,
      "lon": 121.7837291
    },
    {
      "type": "node",
      "id": 5293089687,
      "lat": 25.1482217,
      "lon": 121.783728
    },
    {
      "type": "node",
      "id": 5293089688,
      "lat": 25.1485042,
      "lon": 121.7836353
    },
    {
      "type": "node",
      "id": 5293089689,
      "lat": 25.1482218,
      "lon": 121.7836349
    },
    {
      "type": "node",
      "id": 5305832005,
      "lat": 25.1448124,
      "lon": 121.7806941
    },
    {
      "type": "node",
      "id": 5305832006,
      "lat": 25.1447874,
      "lon": 121.7808071
    },
    {
      "type": "node",
      "id": 5305832007,
      "lat": 25.1447319,
      "lon": 121.7807921
    },
    {
      "type": "node",
      "id": 5305832008,
      "lat": 25.1447568,
      "lon": 121.7806791
    },
    {
      "type": "node",
      "id": 5305832010,
      "lat": 25.144682,
      "lon": 121.7806996
    },
    {
      "type": "node",
      "id": 5305832011,
      "lat": 25.1446826,
      "lon": 121.7807442
    },
    {
      "type": "node",
      "id": 5305832012,
      "lat": 25.1445917,
      "lon": 121.7807457
    },
    {
      "type": "node",
      "id": 5305832013,
      "lat": 25.1445911,
      "lon": 121.7807011
    },
    {
      "type": "node",
      "id": 5305832015,
      "lat": 25.1447404,
      "lon": 121.7805592
    },
    {
      "type": "node",
      "id": 5305832016,
      "lat": 25.1447237,
      "lon": 121.7806142
    },
    {
      "type": "node",
      "id": 5305832017,
      "lat": 25.1446133,
      "lon": 121.7805733
    },
    {
      "type": "node",
      "id": 5305832018,
      "lat": 25.1446299,
      "lon": 121.7805183
    },
    {
      "type": "node",
      "id": 5305832019,
      "lat": 25.1448192,
      "lon": 121.7797738
    },
    {
      "type": "node",
      "id": 5305832020,
      "lat": 25.1448388,
      "lon": 121.7798109
    },
    {
      "type": "node",
      "id": 5305832521,
      "lat": 25.1448089,
      "lon": 121.7798301
    },
    {
      "type": "node",
      "id": 5305832522,
      "lat": 25.1447893,
      "lon": 121.7797931
    },
    {
      "type": "node",
      "id": 5305832523,
      "lat": 25.1447814,
      "lon": 121.7799513
    },
    {
      "type": "node",
      "id": 5305832524,
      "lat": 25.1448121,
      "lon": 121.7800223
    },
    {
      "type": "node",
      "id": 5305832525,
      "lat": 25.1447292,
      "lon": 121.7800661
    },
    {
      "type": "node",
      "id": 5305832526,
      "lat": 25.1446985,
      "lon": 121.7799951
    },
    {
      "type": "node",
      "id": 5305832527,
      "lat": 25.1447251,
      "lon": 121.7797752
    },
    {
      "type": "node",
      "id": 5305832528,
      "lat": 25.1447558,
      "lon": 121.7798462
    },
    {
      "type": "node",
      "id": 5305832529,
      "lat": 25.1446729,
      "lon": 121.7798901
    },
    {
      "type": "node",
      "id": 5305832530,
      "lat": 25.1446422,
      "lon": 121.7798191
    },
    {
      "type": "node",
      "id": 9254976794,
      "lat": 25.1486058,
      "lon": 121.7790926
    },
    {
      "type": "node",
      "id": 9254976795,
      "lat": 25.1486704,
      "lon": 121.779147
    },
    {
      "type": "node",
      "id": 9254976796,
      "lat": 25.1489204,
      "lon": 121.7792711
    },
    {
      "type": "node",
      "id": 9254976797,
      "lat": 25.1488026,
      "lon": 121.7793543
    },
    {
      "type": "node",
      "id": 2422431360,
      "lat": 25.1455543,
      "lon": 121.7864682
    },
    {
      "type": "node",
      "id": 2422431361,
      "lat": 25.1453234,
      "lon": 121.7862824
    },
    {
      "type": "node",
      "id": 2422431362,
      "lat": 25.146013,
      "lon": 121.7857594
    },
    {
      "type": "node",
      "id": 2422431363,
      "lat": 25.1457896,
      "lon": 121.7855824
    },
    {
      "type": "node",
      "id": 2422431667,
      "lat": 25.1449931,
      "lon": 121.7864479
    },
    {
      "type": "node",
      "id": 2422431668,
      "lat": 25.1450826,
      "lon": 121.7865171
    },
    {
      "type": "node",
      "id": 2422433706,
      "lat": 25.1459401,
      "lon": 121.7856835
    },
    {
      "type": "node",
      "id": 2422433711,
      "lat": 25.1458986,
      "lon": 121.7855766
    },
    {
      "type": "node",
      "id": 2422433715,
      "lat": 25.1458681,
      "lon": 121.7856257
    },
    {
      "type": "node",
      "id": 2422433721,
      "lat": 25.1459763,
      "lon": 121.7856356
    },
    {
      "type": "node",
      "id": 2592304778,
      "lat": 25.1451859,
      "lon": 121.7867301
    },
    {
      "type": "node",
      "id": 2592304779,
      "lat": 25.1452508,
      "lon": 121.7866267
    },
    {
      "type": "node",
      "id": 2592304781,
      "lat": 25.1452845,
      "lon": 121.7866487
    },
    {
      "type": "node",
      "id": 2592304782,
      "lat": 25.1453082,
      "lon": 121.786839
    },
    {
      "type": "node",
      "id": 2592304783,
      "lat": 25.1453094,
      "lon": 121.7865109
    },
    {
      "type": "node",
      "id": 2592304784,
      "lat": 25.1453456,
      "lon": 121.7864502
    },
    {
      "type": "node",
      "id": 2592304785,
      "lat": 25.1453506,
      "lon": 121.7865371
    },
    {
      "type": "node",
      "id": 2592304786,
      "lat": 25.1454941,
      "lon": 121.7865619
    },
    {
      "type": "node",
      "id": 3715758401,
      "lat": 25.1494763,
      "lon": 121.7792626
    },
    {
      "type": "node",
      "id": 3715758402,
      "lat": 25.1495971,
      "lon": 121.7791714
    },
    {
      "type": "node",
      "id": 3717114327,
      "lat": 25.151178,
      "lon": 121.7793431
    },
    {
      "type": "node",
      "id": 3717114328,
      "lat": 25.1510927,
      "lon": 121.7795229
    },
    {
      "type": "node",
      "id": 3717114329,
      "lat": 25.1507822,
      "lon": 121.779343
    },
    {
      "type": "node",
      "id": 3717114330,
      "lat": 25.1508676,
      "lon": 121.7791632
    },
    {
      "type": "node",
      "id": 3717114332,
      "lat": 25.1510564,
      "lon": 121.779886
    },
    {
      "type": "node",
      "id": 3717114333,
      "lat": 25.1508991,
      "lon": 121.7798275
    },
    {
      "type": "node",
      "id": 3717114335,
      "lat": 25.1508716,
      "lon": 121.7804924
    },
    {
      "type": "node",
      "id": 3717114336,
      "lat": 25.1507143,
      "lon": 121.7804339
    },
    {
      "type": "node",
      "id": 3717114340,
      "lat": 25.1505791,
      "lon": 121.7809685
    },
    {
      "type": "node",
      "id": 3717114341,
      "lat": 25.15073,
      "lon": 121.7810413
    },
    {
      "type": "node",
      "id": 3717114342,
      "lat": 25.1506465,
      "lon": 121.7812525
    },
    {
      "type": "node",
      "id": 3717114343,
      "lat": 25.1504897,
      "lon": 121.7811769
    },
    {
      "type": "node",
      "id": 3717114344,
      "lat": 25.1503918,
      "lon": 121.7814247
    },
    {
      "type": "node",
      "id": 3717114345,
      "lat": 25.1505343,
      "lon": 121.7814934
    },
    {
      "type": "node",
      "id": 3717114346,
      "lat": 25.1504677,
      "lon": 121.7816622
    },
    {
      "type": "node",
      "id": 3717114347,
      "lat": 25.1501116,
      "lon": 121.7814906
    },
    {
      "type": "node",
      "id": 3717114348,
      "lat": 25.1504555,
      "lon": 121.7806198
    },
    {
      "type": "node",
      "id": 3717114349,
      "lat": 25.1505127,
      "lon": 121.7820175
    },
    {
      "type": "node",
      "id": 3717114350,
      "lat": 25.1503196,
      "lon": 121.7825444
    },
    {
      "type": "node",
      "id": 3717114351,
      "lat": 25.1498121,
      "lon": 121.7823174
    },
    {
      "type": "node",
      "id": 3717114352,
      "lat": 25.1500053,
      "lon": 121.7817905
    },
    {
      "type": "node",
      "id": 3717114353,
      "lat": 25.1503025,
      "lon": 121.7825943
    },
    {
      "type": "node",
      "id": 3717114354,
      "lat": 25.1501677,
      "lon": 121.7825354
    },
    {
      "type": "node",
      "id": 3717114355,
      "lat": 25.1500618,
      "lon": 121.7828312
    },
    {
      "type": "node",
      "id": 3717114356,
      "lat": 25.1499514,
      "lon": 121.7827809
    },
    {
      "type": "node",
      "id": 3717114357,
      "lat": 25.1498997,
      "lon": 121.7829198
    },
    {
      "type": "node",
      "id": 3717114358,
      "lat": 25.1501472,
      "lon": 121.783028
    },
    {
      "type": "node",
      "id": 3717114359,
      "lat": 25.1497875,
      "lon": 121.783221
    },
    {
      "type": "node",
      "id": 3717114360,
      "lat": 25.1496,
      "lon": 121.7831357
    },
    {
      "type": "node",
      "id": 3717114361,
      "lat": 25.1497639,
      "lon": 121.7826957
    },
    {
      "type": "node",
      "id": 3717114371,
      "lat": 25.1506751,
      "lon": 121.7807255
    },
    {
      "type": "node",
      "id": 3717114372,
      "lat": 25.1502499,
      "lon": 121.7825132
    },
    {
      "type": "node",
      "id": 3717114373,
      "lat": 25.1502294,
      "lon": 121.7825624
    },
    {
      "type": "node",
      "id": 3717718153,
      "lat": 25.1504088,
      "lon": 121.7794295
    },
    {
      "type": "node",
      "id": 3717718154,
      "lat": 25.1503032,
      "lon": 121.7797764
    },
    {
      "type": "node",
      "id": 3717718156,
      "lat": 25.1500994,
      "lon": 121.7793101
    },
    {
      "type": "node",
      "id": 3717734292,
      "lat": 25.150014,
      "lon": 121.7797741
    },
    {
      "type": "node",
      "id": 3717734293,
      "lat": 25.1499736,
      "lon": 121.7799246
    },
    {
      "type": "node",
      "id": 3717734294,
      "lat": 25.1499822,
      "lon": 121.7802606
    },
    {
      "type": "node",
      "id": 3717734296,
      "lat": 25.1499926,
      "lon": 121.779661
    },
    {
      "type": "node",
      "id": 3717734302,
      "lat": 25.1495035,
      "lon": 121.7798993
    },
    {
      "type": "node",
      "id": 5255271982,
      "lat": 25.1494547,
      "lon": 121.7794587
    },
    {
      "type": "node",
      "id": 5255271983,
      "lat": 25.1494584,
      "lon": 121.779605
    },
    {
      "type": "node",
      "id": 5255271984,
      "lat": 25.1494965,
      "lon": 121.7797179
    },
    {
      "type": "node",
      "id": 5729328512,
      "lat": 25.1508375,
      "lon": 121.7806046
    },
    {
      "type": "node",
      "id": 5729328513,
      "lat": 25.1505211,
      "lon": 121.7804555
    },
    {
      "type": "node",
      "id": 5729328514,
      "lat": 25.1504562,
      "lon": 121.7806235
    },
    {
      "type": "node",
      "id": 5729328515,
      "lat": 25.1507725,
      "lon": 121.7807727
    },
    {
      "type": "node",
      "id": 5729328516,
      "lat": 25.1507758,
      "lon": 121.7804604
    },
    {
      "type": "node",
      "id": 5729328517,
      "lat": 25.1507428,
      "lon": 121.7805623
    },
    {
      "type": "node",
      "id": 6264037443,
      "lat": 25.1500809,
      "lon": 121.7791974
    },
    {
      "type": "node",
      "id": 6264037444,
      "lat": 25.1501707,
      "lon": 121.7792308
    },
    {
      "type": "node",
      "id": 6264037445,
      "lat": 25.1501616,
      "lon": 121.7792605
    },
    {
      "type": "node",
      "id": 6264037446,
      "lat": 25.1500519,
      "lon": 121.7792925
    },
    {
      "type": "node",
      "id": 6264037447,
      "lat": 25.1503668,
      "lon": 121.7793367
    },
    {
      "type": "node",
      "id": 6264037448,
      "lat": 25.1503705,
      "lon": 121.7793244
    },
    {
      "type": "node",
      "id": 6264037449,
      "lat": 25.1504337,
      "lon": 121.7793478
    },
    {
      "type": "node",
      "id": 6264037450,
      "lat": 25.150245,
      "lon": 121.7803413
    },
    {
      "type": "node",
      "id": 6264037451,
      "lat": 25.1503639,
      "lon": 121.7799188
    },
    {
      "type": "node",
      "id": 6264037452,
      "lat": 25.1500978,
      "lon": 121.7802889
    },
    {
      "type": "node",
      "id": 6264037453,
      "lat": 25.1502614,
      "lon": 121.779883
    },
    {
      "type": "node",
      "id": 12440057373,
      "lat": 25.1508922,
      "lon": 121.7796567
    },
    {
      "type": "node",
      "id": 12440057374,
      "lat": 25.1507332,
      "lon": 121.7795923
    },
    {
      "type": "node",
      "id": 12440057375,
      "lat": 25.1505304,
      "lon": 121.7801958
    },
    {
      "type": "node",
      "id": 12440057376,
      "lat": 25.1506858,
      "lon": 121.7802494
    }
  ]
}